{"version": 0.6, "generator": "Overpass API 0.7.56.8 7d656e78", "osm3s": {"timestamp_osm_base": "2020-11-09T08:25:03Z", "timestamp_areas_base": "2020-11-09T08:08:02Z", "copyright": "The data included in this document is from www.openstreetmap.org. The data is made available under ODbL."}, "elements": [{"type": "node", "id": 17193023, "lat": 49.5981187, "lon": 11.003645, "tags": {"ele": "279", "is_in": "Mittelfranken,Bayern,Bundesrepublik Deutschland,Europe", "is_in:country_code": "DE", "is_in:iso_3166_2": "DE-BY", "license_plate_code": "ER", "name": "Erlangen", "name:ar": "\u0625\u0631\u0644\u0646\u063a\u0646", "name:de": "Erlangen", "name:en": "Erlangen", "name:hu": "Erlangen", "name:la": "Erlanga", "name:lt": "Erlangenas", "name:ru": "\u042d\u0440\u043b\u0430\u043d\u0433\u0435\u043d", "name:sr": "\u0415\u0440\u043b\u0430\u043d\u0433\u0435\u043d", "name:ta": "\u0b8e\u0bb0\u0bcd\u0bb2\u0b99\u0bcd\u0b95\u0ba9\u0bcd", "openGeoDB:community_identification_number": "09562", "openGeoDB:is_in_loc_id": "164", "openGeoDB:license_plate_code": "ER", "openGeoDB:loc_id": "608", "place": "city", "population": "105624", "ref:LOCODE": "DEERL", "source:population": "Zensus 2013", "website": "https://www.erlangen.de/", "wikidata": "Q3126", "wikipedia": "de:Erlangen"}}, {"type": "node", "id": 18318938, "lat": 52.1521636, "lon": 9.9513046, "tags": {"ele": "81", "is_in": "Hildesheim,Niedersachsen,Bundesrepublik Deutschland,Europe", "is_in:country_code": "DE", "is_in:iso_3166_2": "DE-NI", "name": "Hildesheim", "name:ar": "\u0647\u0644\u062f\u0633\u0647\u0627\u064a\u0645", "name:fa": "\u0647\u0644\u062f\u0633\u200c\u0647\u0627\u06cc\u0645", "name:hu": "Hildesheim", "name:ja": "\u30d2\u30eb\u30c7\u30b9\u30cf\u30a4\u30e0", "name:la": "Hildesia", "name:lt": "Hildesheimas", "name:nds": "Hilmessen", "name:ru": "\u0425\u0438\u043b\u044c\u0434\u0435\u0441\u0445\u0430\u0439\u043c", "name:sr": "\u0425\u0438\u043b\u0434\u0435\u0441\u0445\u0430\u0458\u043c", "openGeoDB:community_identification_number": "03254021", "openGeoDB:license_plate_code": "HI", "openGeoDB:loc_id": "18328", "openGeoDB:postal_codes": "31134,31135,31137,31139,31141", "openGeoDB:telephone_area_code": "05121", "place": "city", "population": "101744", "population:date": "2017", "ref:LOCODE": "DEHIL", "wikidata": "Q3185", "wikipedia": "de:Hildesheim"}}, {"type": "node", "id": 20830918, "lat": 50.8322608, "lon": 12.9252977, "tags": {"ele": "296", "is_in": "Sachsen,Bundesrepublik Deutschland,Europe", "is_in:country_code": "DE", "is_in:iso_3166_2": "DE-SN", "name": "Chemnitz", "name:ar": "\u0643\u064a\u0645\u0646\u062a\u0633", "name:cs": "Sask\u00e1 Kamenice", "name:de": "Chemnitz", "name:el": "\u039a\u03ad\u03bc\u03bd\u03b9\u03c4\u03c2", "name:fa": "\u06a9\u0645\u0646\u06cc\u062a\u0633", "name:he": "\u05e7\u05de\u05e0\u05d9\u05e5", "name:hsb": "Kamjenica", "name:hu": "Chemnitz", "name:ja": "\u30b1\u30e0\u30cb\u30c3\u30c4", "name:ko": "\ucf10\ub2c8\uce20", "name:la": "Chemnicium", "name:lt": "Chemnicas", "name:lv": "Kemnica", "name:ru": "\u0425\u0435\u043c\u043d\u0438\u0446", "name:sr": "\u0425\u0435\u043c\u043d\u0438\u0446", "name:uk": "\u0425\u0435\u043c\u043d\u0456\u0446", "old_name": "1953-1990=Karl-Marx-Stadt", "openGeoDB:community_identification_number": "14161", "openGeoDB:license_plate_code": "C", "openGeoDB:loc_id": "499", "place": "city", "population": "243089", "ref:LOCODE": "DECHE", "wikidata": "Q2795", "wikipedia": "de:Chemnitz"}}, {"type": "node", "id": 20833613, "lat": 51.0493286, "lon": 13.7381437, "tags": {"capital": "4", "ele": "112", "image": "File:Dresden-nightpanorama-dri.jpg", "name": "Dresden", "name:ar": "\u062f\u0631\u064a\u0633\u062f\u0646", "name:az": "Drezden", "name:be": "\u0414\u0440\u044d\u0437\u0434\u044d\u043d", "name:cs": "Dr\u00e1\u017e\u010fany", "name:de": "Dresden", "name:el": "\u0394\u03c1\u03ad\u03c3\u03b4\u03b7", "name:es": "Dresde", "name:fa": "\u062f\u0631\u0633\u062f\u0646", "name:fr": "Dresde", "name:he": "\u05d3\u05e8\u05d6\u05d3\u05df", "name:hsb": "Drje\u017ed\u017aany", "name:hu": "Drezda", "name:it": "Dresda", "name:ja": "\u30c9\u30ec\u30b9\u30c7\u30f3", "name:ko": "\ub4dc\ub808\uc2a4\ub374", "name:la": "Dresda", "name:lt": "Dresdenas", "name:lv": "Dr\u0113zdene", "name:mk": "\u0414\u0440\u0435\u0437\u0434\u0435\u043d", "name:nds": "Dresden", "name:pl": "Drezno", "name:ro": "Dresda", "name:ru": "\u0414\u0440\u0435\u0437\u0434\u0435\u043d", "name:sk": "Dr\u00e1\u017e\u010fany", "name:sr": "\u0414\u0440\u0435\u0437\u0434\u0435\u043d", "name:uk": "\u0414\u0440\u0435\u0437\u0434\u0435\u043d", "name:ur": "\u0688\u0631\u06cc\u0633\u0688\u0646", "name:zh": "\u5fb7\u52d2\u65af\u767b", "openGeoDB:loc_id": "15827", "place": "city", "population": "557098", "ref:LOCODE": "DEDRS", "website": "http://www.dresden.de/", "wikidata": "Q1731", "wikipedia": "de:Dresden"}}, {"type": "node", "id": 20833623, "lat": 53.550341, "lon": 10.000654, "tags": {"capital": "4", "ele": "6", "is_in": "Hamburg,Bundesrepublik Deutschland,Europe", "is_in:country_code": "DE", "is_in:iso_3166_2": "DE-HH", "name": "Hamburg", "name:af": "Hamburg", "name:als": "Hamburg", "name:an": "Amburgo", "name:ar": "\u0647\u0627\u0645\u0628\u0648\u0631\u063a", "name:arc": "\u0717\u0710\u0721\u0712\u0718\u072a\u0713", "name:az": "Hamburq", "name:bar": "Hamburg", "name:be": "\u0413\u0430\u043c\u0431\u0443\u0440\u0433", "name:bg": "\u0425\u0430\u043c\u0431\u0443\u0440\u0433", "name:bn": "\u09b9\u09be\u09ae\u09ac\u09c1\u09b0\u09cd\u0997", "name:br": "Hamburg", "name:bs": "Hamburg", "name:ca": "Ciutat d'Hamburg", "name:cs": "Hamburk", "name:cy": "Hamburg", "name:da": "Hamborg", "name:de": "Hamburg", "name:dsb": "Hamburg", "name:el": "\u0391\u03bc\u03b2\u03bf\u03cd\u03c1\u03b3\u03bf", "name:en": "Hamburg", "name:eo": "Hamburgo", "name:es": "Hamburgo", "name:et": "Hamburg", "name:eu": "Hanburg hiria", "name:fa": "\u0647\u0627\u0645\u0628\u0648\u0631\u06af", "name:fi": "Hampuri", "name:fr": "Hambourg", "name:fur": "Amburc", "name:fy": "Hamboarch", "name:ga": "Hamburg", "name:gd": "Hamburg", "name:gl": "Hamburgo", "name:he": "\u05d4\u05de\u05d1\u05d5\u05e8\u05d2", "name:hr": "Hamburg", "name:hsb": "Hamburg", "name:hu": "Hamburg", "name:hy": "\u0540\u0561\u0574\u0562\u0578\u0582\u0580\u0563", "name:id": "Hamburg", "name:ie": "Hamburg", "name:io": "Hamburg", "name:is": "Hamborg", "name:it": "Amburgo", "name:ja": "\u30cf\u30f3\u30d6\u30eb\u30af", "name:jv": "Hamburg", "name:ka": "\u10f0\u10d0\u10db\u10d1\u10e3\u10e0\u10d2\u10d8", "name:kn": "\u0cb9\u0cbe\u0c82\u0cac\u0cc1\u0cb0\u0ccd\u0c95", "name:ko": "\ud568\ubd80\ub974\ud06c", "name:ksh": "Hamborsch", "name:ku": "Hamburg", "name:la": "Hamburgum", "name:lb": "Hamburg", "name:lij": "Amb\u00fbrgo", "name:lt": "Hamburgas", "name:lv": "Hamburga", "name:mi": "Hamapaka", "name:mk": "\u0425\u0430\u043c\u0431\u0443\u0440\u0433", "name:mr": "\u0939\u093e\u0902\u092c\u0941\u0930\u094d\u0917", "name:nan": "Hamburg", "name:nds": "Hamborg", "name:nds-nl": "Hamb\u00f6rg", "name:nl": "Hamburg", "name:nn": "Hamburg", "name:no": "Hamburg", "name:oc": "Amborg", "name:pam": "Hamburg", "name:pl": "Hamburg", "name:pt": "Hamburgo", "name:qu": "Hamburg", "name:rm": "Hamburg", "name:ro": "Hamburg", "name:ru": "\u0413\u0430\u043c\u0431\u0443\u0440\u0433", "name:scn": "Amburgu", "name:short": "HH", "name:sk": "Hamburg", "name:sl": "Hamburg", "name:sq": "Hamburgu", "name:sr": "\u0425\u0430\u043c\u0431\u0443\u0440\u0433", "name:sv": "Hamburg", "name:sw": "Hamburg", "name:szl": "Hamburg", "name:th": "\u0e2e\u0e31\u0e21\u0e1a\u0e39\u0e23\u0e4c\u0e01", "name:tr": "Hamburg", "name:uk": "\u0413\u0430\u043c\u0431\u0443\u0440\u0433", "name:ur": "\u06c1\u0645 \u0628\u0631\u06a9", "name:vec": "Anburgo", "name:vi": "Hamburg", "name:vo": "Hamburg", "name:xh": "Hamburg", "name:yi": "\u05d4\u05d0\u05de\u05d1\u05d5\u05e8\u05d2", "name:yue": "\u6f22\u5821", "name:zh": "\u6f22\u5821\u5e02", "official_status": "Land", "official_status:ar": "\u0648\u0644\u0627\u064a\u0629", "official_status:de": "Land", "official_status:en": "State", "official_status:ru": "\u0437\u0435\u043c\u043b\u044f", "openGeoDB:community_identification_number": "02000000", "openGeoDB:license_plate_code": "HH", "openGeoDB:loc_id": "17838", "openGeoDB:postal_codes": "20038,20095,20097,20099,20144,20146,20148,20149,20249,20251,20253,20255,20257,20259,20354,20355,20357,20359,20457,20459,20535,20537,20539,21029,21031,21033,21035,21037,21039,21073,21075,21077,21079,21107,21109,21129,21147,21149,22041,22043,22045,22047,22", "openGeoDB:telephone_area_code": "040", "place": "city", "population": "1812709", "ref": "HH", "ref:LOCODE": "DEHAM", "wikidata": "Q1055", "wikipedia": "de:Hamburg"}}, {"type": "node", "id": 20953083, "lat": 50.938361, "lon": 6.959974, "tags": {"alt_name:gl": "K\u00f6ln", "contact:website": "http://www.stadt-koeln.de", "ele": "53", "loc_name": "K\u00f6lle", "name": "K\u00f6ln", "name:af": "Keulen", "name:als": "K\u00f6ln", "name:ar": "\u0643\u0648\u0644\u0648\u0646\u064a\u0627", "name:bat-smg": "Kiolns", "name:be": "\u041a\u0451\u043b\u044c\u043d", "name:bg": "\u041a\u044c\u043e\u043b\u043d", "name:bs": "K\u00f6ln", "name:ca": "Col\u00f2nia", "name:cs": "Kol\u00edn nad R\u00fdnem", "name:cy": "Cwlen", "name:da": "K\u00f6ln", "name:de": "K\u00f6ln", "name:dsb": "K\u00f6ln", "name:el": "\u039a\u03bf\u03bb\u03c9\u03bd\u03af\u03b1", "name:en": "Cologne", "name:eo": "Kolonjo", "name:es": "Colonia", "name:et": "K\u00f6ln", "name:eu": "Kolonia", "name:fa": "\u06a9\u0644\u0646", "name:fi": "K\u00f6ln", "name:fr": "Cologne", "name:fy": "Keulen", "name:ga": "K\u00f6ln", "name:gl": "Colonia", "name:he": "\u05e7\u05dc\u05df", "name:hi": "\u0915\u0932\u094b\u0928\u094d", "name:hr": "K\u00f6ln", "name:hu": "K\u00f6ln", "name:ia": "Colonia", "name:id": "K\u00f6ln", "name:io": "K\u00f6ln", "name:is": "K\u00f6ln", "name:it": "Colonia", "name:ja": "\u30b1\u30eb\u30f3", "name:ka": "\u10d9\u10d4\u10da\u10dc\u10d8", "name:kn": "\u0c95\u0cb2\u0ccb\u0ca8\u0ccd", "name:ko": "\ucfb0\ub978", "name:ksh": "K\u00f6lle", "name:ku": "K\u00f6ln", "name:la": "Colonia Agrippina", "name:lb": "K\u00f6ln", "name:li": "K\u00f6lle", "name:lt": "Kelnas", "name:lv": "\u0136elne", "name:mk": "\u041a\u0435\u043b\u043d", "name:mr": "\u0915\u094d\u092f\u094b\u0932\u094d\u0928", "name:ms": "Cologne", "name:nds": "K\u00f6ln", "name:nl": "Keulen", "name:nn": "K\u00f6ln", "name:no": "K\u00f6ln", "name:oc": "Colonha", "name:pam": "Cologne", "name:pl": "Kolonia", "name:pt": "Col\u00f4nia", "name:qu": "K\u00f6ln", "name:ro": "K\u00f6ln", "name:ru": "\u041a\u0451\u043b\u044c\u043d", "name:scn": "Culonia", "name:sh": "K\u00f6ln", "name:sk": "Kol\u00edn nad R\u00fdnom", "name:sl": "K\u00f6ln", "name:sq": "K\u00ebllni", "name:sr": "\u041a\u0435\u043b\u043d", "name:sv": "K\u00f6ln", "name:sw": "K\u00f6ln", "name:th": "\u0e42\u0e04\u0e42\u0e25\u0e0d", "name:tl": "Cologne", "name:tr": "K\u00f6ln", "name:uk": "\u041a\u0435\u043b\u044c\u043d", "name:vec": "Co\u0142ogna", "name:vi": "K\u00f6ln", "name:vo": "K\u00f6ln", "name:wuu": "\u770b\u52d2\u5c14", "name:yi": "\u05e7\u05e2\u05dc\u05df", "name:yue": "\u53e4\u9f8d", "name:zh": "\u79d1\u9686", "name:zh-Hans": "\u79d1\u9686", "name:zh_pinyin": "K\u0113l\u00f3ng", "name:zu": "K\u00f6ln", "old_name": "C\u00f6ln;Coellen", "openGeoDB:community_identification_number": "05315", "openGeoDB:license_plate_code": "K", "openGeoDB:loc_id": "417", "place": "city", "population": "1069200", "ref:LOCODE": "DECGN", "reg_name": "K\u00f6lle", "source:name": "Wikipedia", "website": "http://www.koeln.de", "wikidata": "Q365", "wikipedia": "de:K\u00f6ln"}}, {"type": "node", "id": 20982927, "lat": 53.0758196, "lon": 8.8071646, "tags": {"capital": "4", "name": "Bremen", "name:ar": "\u0628\u0631\u064a\u0645\u0646", "name:be": "\u0411\u0440\u044d\u043c\u0435\u043d", "name:bg": "\u0411\u0440\u0435\u043c\u0435\u043d", "name:cs": "Br\u00e9my", "name:de": "Bremen", "name:el": "\u0392\u03c1\u03ad\u03bc\u03b7", "name:en": "Bremen", "name:fa": "\u0628\u0631\u0645\u0646", "name:fr": "Br\u00eame", "name:fy": "Bremen", "name:he": "\u05d1\u05e8\u05de\u05df", "name:hsb": "Bremy", "name:hu": "Br\u00e9ma", "name:it": "Brema", "name:ja": "\u30d6\u30ec\u30fc\u30e1\u30f3", "name:ka": "\u10d1\u10e0\u10d4\u10db\u10d4\u10dc\u10d8", "name:ko": "\ube0c\ub808\uba58", "name:la": "Brema", "name:lt": "Br\u0117menas", "name:lv": "Br\u0113mene", "name:mk": "\u0411\u0440\u0435\u043c\u0435\u043d", "name:nds": "Bremen", "name:oc": "Br\u00e8ma", "name:pl": "Brema", "name:ru": "\u0411\u0440\u0435\u043c\u0435\u043d", "name:sc": "Brema", "name:sk": "Br\u00e9my", "name:sq": "Bremeni", "name:sr": "\u0411\u0440\u0435\u043c\u0435\u043d", "name:uk": "\u0411\u0440\u0435\u043c\u0435\u043d", "name:ur": "\u0628\u0631\u06cc\u0645\u06cc\u0646", "name:zh": "\u4e0d\u6765\u6885", "note": "Achtung! Die Verwaltungsgrenzen verlaufen NICHT an der coastline, sondern in der Weser. Amtliche Stadtgliederung beachten.", "official_name": "Freie Hansestadt Bremen", "official_name:ar": "\u0645\u062f\u064a\u0646\u0629 \u0628\u0631\u064a\u0645\u0646 \u0627\u0644\u062d\u0631\u0629 \u0627\u0644\u0647\u0627\u0646\u0632\u064a\u0629", "official_status": "Land", "official_status:ar": "\u0648\u0644\u0627\u064a\u0629", "official_status:de": "Land", "official_status:en": "State", "official_status:ru": "\u0437\u0435\u043c\u043b\u044f", "openGeoDB:community_identification_number": "04011000", "openGeoDB:license_plate_code": "HB", "openGeoDB:loc_id": "14937", "openGeoDB:postal_codes": "28195,28203,28205,28207,28209,28211,28213,28215,28217,28219,28237,28239,28307,28309,28325,28327,28329,28355,28357,28359,28717,28719,28755,28757,28759,28777,28779,28197,28199,28201,28259,28277,28279", "openGeoDB:telephone_area_code": "0421", "place": "city", "population": "551415", "ref:LOCODE": "DEBRE", "source:population": "http://www.statistik-bremen.de/aktuelle_statistiken/01b.htm, November 2014", "website": "https://www.bremen.de/", "wikidata": "Q24879", "wikipedia": "de:Bremen"}}, {"type": "node", "id": 21315295, "lat": 51.5380394, "lon": 7.219985, "tags": {"ele": "65", "name": "Herne", "name:ar": "\u0647\u064a\u0631\u0646\u0647", "name:en": "Herne", "name:hu": "Herne", "name:ru": "\u0425\u0435\u0440\u043d\u0435", "name:sr": "\u0425\u0435\u0440\u043d\u0435", "openGeoDB:community_identification_number": "05916", "openGeoDB:license_plate_code": "HER", "openGeoDB:loc_id": "618", "place": "city", "population": "154417", "ref:LOCODE": "DEHEE", "website": "https://www.herne.de/", "wikidata": "Q2904", "wikipedia": "de:Herne"}}, {"type": "node", "id": 21687149, "lat": 51.3406321, "lon": 12.3747329, "tags": {"ele": "118", "license_plate_code": "L", "loc_name": "Leipzsch", "name": "Leipzig", "name:ar": "\u0644\u0627\u064a\u0628\u0632\u064a\u063a", "name:cs": "Lipsko", "name:de": "Leipzig", "name:el": "\u039b\u03b5\u03b9\u03c8\u03af\u03b1", "name:fa": "\u0644\u0627\u06cc\u067e\u0632\u06cc\u06af", "name:fr": "Leipzig", "name:hsb": "Lipsk", "name:hu": "Lipcse", "name:it": "Lipsia", "name:ja": "\u30e9\u30a4\u30d7\u30c4\u30a3\u30d2", "name:la": "Lipsia", "name:lat": "Lipsia", "name:lv": "Leipciga", "name:mk": "\u041b\u0430\u0458\u043f\u0446\u0438\u0433", "name:nds": "Lips", "name:pl": "Lipsk", "name:ru": "\u041b\u0435\u0439\u043f\u0446\u0438\u0433", "name:sr": "\u041b\u0430\u0458\u043f\u0446\u0438\u0433", "name:uk": "\u041b\u0435\u0439\u043f\u0446\u0438\u0433", "name:ur": "\u0644\u0627\u0626\u067e\u0632\u0634", "name:zh": "\u83b1\u6bd4\u9521", "openGeoDB:is_in_loc_id": "503", "openGeoDB:loc_id": "20112", "place": "city", "population": "596517", "ref:LOCODE": "DELEJ", "reg_name": "Leipzsch,LE", "telephone_area_code": "0341", "website": "https://www.leipzig.de/", "wikidata": "Q2079", "wikipedia": "de:Leipzig"}}, {"type": "node", "id": 24487450, "lat": 54.3227085, "lon": 10.135555, "tags": {"capital": "4", "is_in:country": "Germany", "name": "Kiel", "name:ar": "\u0643\u064a\u0644", "name:be": "\u041a\u0456\u043b\u044c", "name:bg": "\u041a\u0438\u043b", "name:de": "Kiel", "name:el": "\u039a\u03af\u03b5\u03bb\u03bf", "name:fa": "\u06a9\u06cc\u0644", "name:is": "K\u00edl", "name:lt": "Kylis", "name:lv": "\u0136\u012ble", "name:mk": "\u041a\u0438\u043b", "name:nds": "Kiel", "name:pl": "Kilonia", "name:ru": "\u041a\u0438\u043b\u044c", "name:uk": "\u041a\u0456\u043b\u044c", "name:ur": "\u06a9\u06cc\u0644", "note": "admin_centre", "openGeoDB:loc_id": "19236", "place": "city", "population": "246306", "wikidata": "Q1707", "wikipedia": "de:Kiel"}}, {"type": "node", "id": 25293125, "lat": 51.5142273, "lon": 7.4652789, "tags": {"ele": "86", "name": "Dortmund", "name:ar": "\u062f\u0648\u0631\u062a\u0645\u0646\u062f", "name:br": "Dortmund", "name:de": "Dortmund", "name:hu": "Dortmund", "name:ja": "\u30c9\u30eb\u30c8\u30e0\u30f3\u30c8", "name:la": "Tremonia", "name:mk": "\u0414\u043e\u0440\u0442\u043c\u0443\u043d\u0434", "name:nds": "D\u00fc\u00f6rpm", "name:ru": "\u0414\u043e\u0440\u0442\u043c\u0443\u043d\u0434", "name:sr": "\u0414\u043e\u0440\u0442\u043c\u0443\u043d\u0434", "name:uk": "\u0414\u043e\u0440\u0442\u043c\u0443\u043d\u0434", "name:zh": "\u591a\u7279\u8499\u5fb7", "place": "city", "population": "600933", "website": "https://www.dortmund.de/", "wikidata": "Q1295", "wikipedia": "de:Dortmund"}}, {"type": "node", "id": 25327151, "lat": 53.866444, "lon": 10.684738, "tags": {"ele": "13", "heritage": "1", "historic": "unesco world heritage", "is_in": "Hansestadt L\u00fcbeck,Schleswig-Holstein,Bundesrepublik Deutschland,Europe", "is_in:country_code": "DE", "is_in:iso_3166_2": "DE-SH", "name": "L\u00fcbeck", "name:ar": "\u0644\u0648\u0628\u0643", "name:cs": "Lubek", "name:de": "L\u00fcbeck", "name:en": "L\u00fcbeck", "name:eo": "Lubeko", "name:es": "Lubeca", "name:fa": "\u0644\u0648\u0628\u06a9", "name:fi": "Lyypekki", "name:fr": "L\u00fcbeck", "name:hsb": "Lubica", "name:hu": "L\u00fcbeck", "name:it": "Lubecca", "name:ja": "\u30ea\u30e5\u30fc\u30d9\u30c3\u30af", "name:la": "Lubeca", "name:lt": "Liubekas", "name:lv": "L\u012bbeka", "name:nds": "L\u00fcbeck", "name:pl": "Lubeka", "name:ru": "\u041b\u044e\u0431\u0435\u043a", "name:sq": "Lybeku", "name:sr": "\u041b\u0438\u0431\u0435\u043a", "name:uk": "\u041b\u044e\u0431\u0435\u043a", "name:ur": "\u0644\u0648\u0628\u06a9", "nickname": "Hansestadt", "nickname:af": "Hansestad", "nickname:an": "Ciudat Hanseatica", "nickname:ar": "\u0645\u062f\u064a\u0646\u0629 \u0627\u0644\u0647\u0627\u0646\u0632\u064a\u0629", "nickname:ast": "Ciud\u00e1 Hanse\u00e1tica", "nickname:az": "Hanzey \u015f\u0259h\u0259ri", "nickname:bar": "Hansestod", "nickname:be": "\u0413\u0430\u043d\u0437\u0435\u0439\u0441\u043a\u0456 \u0433\u043e\u0440\u0430\u0434", "nickname:be-tarask": "\u0413\u0430\u043d\u0437\u0435\u0439\u0441\u043a\u0456 \u0433\u043e\u0440\u0430\u0434", "nickname:ca": "ciutat hanse\u00e0tica", "nickname:cs": "hanzovn\u00ed m\u011bsto", "nickname:de": "Hansestadt", "nickname:en": "Hanseatic city", "nickname:eo": "Hanso-urbo", "nickname:es": "ciudad hanse\u00e1tica", "nickname:et": "hansalinn", "nickname:eu": "Hansar Hiria", "nickname:fr": "ville hans\u00e9atique", "nickname:frr": "Hansest\u00e4\u00e4d", "nickname:fy": "H\u00e2nzest\u00ead", "nickname:gl": "Cidade Hanse\u00e1tica", "nickname:hsb": "hansowe m\u011bsto", "nickname:hu": "Hanza-v\u00e1ros", "nickname:id": "Kota Hanseatik", "nickname:it": "citt\u00e0 anseatica", "nickname:ja": "\u30cf\u30f3\u30b6\u90fd\u5e02", "nickname:jv": "Kota Hanseatik", "nickname:la": "urbs Hanseatica", "nickname:lb": "Hansestad", "nickname:lt": "Hanzos s\u0105jungos miestas", "nickname:lv": "hanzas pils\u0113ta", "nickname:mk": "\u0425\u0430\u043d\u0437\u0438\u043d \u0433\u0440\u0430\u0434", "nickname:nds": "Hansestadt", "nickname:nds-nl": "Hanzestad", "nickname:nl": "Hanzestad", "nickname:no": "Hansabyen", "nickname:pt": "Cidade Hanse\u00e1tica", "nickname:ro": "Ora\u0219 al Hansei", "nickname:ru": "\u0413\u0430\u043d\u0437\u0435\u0301\u0439\u0441\u043a\u0438\u0439 \u0433\u043e\u0301\u0440\u043e\u0434", "nickname:sc": "Tzitade Anse\u00e0tica", "nickname:sco": "Hanseatic ceety", "nickname:sk": "hanzov\u00e9 mesto", "nickname:sl": "hanzeatsko mesto", "nickname:th": "\u0e19\u0e04\u0e23\u0e2e\u0e31\u0e19\u0e40\u0e0b\u0e2d\u0e41\u0e2b\u0e48\u0e07", "nickname:vec": "sit\u00e0 anseatica", "nickname:vi": "th\u00e0nh ph\u1ed1 Hanse", "nickname:yue": "\u6f22\u838e\u57ce\u5e02", "nickname:zh": "\u6c49\u8428\u540c\u76df\u57ce\u5e02", "official_name": "Hansestadt L\u00fcbeck", "official_name:af": "Hansestad L\u00fcbeck", "official_name:an": "Ciudat Hanseatica de L\u00fcbeck", "official_name:ar": "\u0645\u062f\u064a\u0646\u0629 \u0644\u0648\u0628\u0643 \u0627\u0644\u0647\u0627\u0646\u0632\u064a\u0629", "official_name:ast": "Ciud\u00e1 Hanse\u00e1tica de L\u00fcbeck", "official_name:az": "Hanzey \u015f\u0259h\u0259ri L\u00fcbek", "official_name:bar": "Hansestod L\u00fcbeck", "official_name:be": "\u0413\u0430\u043d\u0437\u0435\u0439\u0441\u043a\u0456 \u0433\u043e\u0440\u0430\u0434 \u041b\u044e\u0431\u0435\u043a", "official_name:be-tarask": "\u0413\u0430\u043d\u0437\u0435\u0439\u0441\u043a\u0456 \u0433\u043e\u0440\u0430\u0434 \u041b\u044e\u0431\u044d\u043a", "official_name:ca": "Ciutat Lliure i Hanse\u00e0tica de L\u00fcbeck", "official_name:cv": "\u041b\u044e\u0431\u0435\u043a \u0445\u0430\u043d\u0437\u0430 \u0445\u0443\u043b\u0438", "official_name:da": "Hansestaden Lyb\u00e6k", "official_name:de": "Hansestadt L\u00fcbeck", "official_name:en": "Hanseatic City of L\u00fcbeck", "official_name:eo": "Hanso-urbo Lubeko", "official_name:es": "Ciudad Hanse\u00e1tica de L\u00fcbeck", "official_name:et": "Hansalinn L\u00fcbeck", "official_name:eu": "L\u00fcbeckeko Hansar Hiria", "official_name:fy": "H\u00e2nzest\u00ead L\u00fcbeck", "official_name:gl": "Cidade Hanse\u00e1tica de L\u00fcbeck", "official_name:hr": "Hanzeatski grad L\u00fcbeck", "official_name:hsb": "Hansowe m\u011bsto Lubica", "official_name:id": "Kota Hanseatik L\u00fcbeck", "official_name:it": "libera citt\u00e0 anseatica di Lubecca", "official_name:ja": "\u30cf\u30f3\u30b6\u90fd\u5e02\u30ea\u30e5\u30fc\u30d9\u30c3\u30af", "official_name:jv": "Kota Hanseatik L\u00fcbeck", "official_name:la": "Lubeca urbs Hansica", "official_name:lb": "Hansestad L\u00fcbeck", "official_name:mk": "\u0425\u0430\u043d\u0437\u0438\u043d \u0433\u0440\u0430\u0434 \u041b\u0438\u0431\u0435\u043a", "official_name:nds-nl": "Hanzestad Lubeek", "official_name:nl": "Hanzestad L\u00fcbeck", "official_name:no": "Hansestadt L\u00fcbeck", "official_name:pt": "Cidade Hanse\u00e1tica de L\u00fcbeck", "official_name:sco": "Hanseatic Ceety o L\u00fcbeck", "official_name:th": "\u0e19\u0e04\u0e23\u0e2e\u0e31\u0e19\u0e40\u0e0b\u0e2d\u0e41\u0e2b\u0e48\u0e07\u0e25\u0e37\u0e2d\u0e40\u0e1a\u0e04", "official_name:tr": "Hanseatik D\u00f6nemin L\u00fcbeck \u015eehri", "official_name:vi": "Th\u00e0nh ph\u1ed1 Hanse L\u00fcbeck", "official_name:yue": "\u6f22\u838e\u57ce\u5e02\u5442\u78a7\u514b", "official_name:zh": "\u6c49\u8428\u540c\u76df\u57ce\u5e02\u5415\u8d1d\u514b", "openGeoDB:community_identification_number": "01003000", "openGeoDB:license_plate_code": "HL", "openGeoDB:loc_id": "20437", "openGeoDB:name": "L\u00fcbeck", "openGeoDB:postal_codes": "23539,23552,23554,23556,23558,23560,23562,23564,23566,23568,23569,23570", "openGeoDB:telephone_area_code": "0451", "openGeoDB:type": "Hansestadt", "place": "city", "population": "212958", "ref:LOCODE": "DELBC", "wikidata": "Q2843", "wikipedia": "de:L\u00fcbeck"}}, {"type": "node", "id": 25738881, "lat": 49.79245, "lon": 9.932966, "tags": {"ele": "177", "name": "W\u00fcrzburg", "name:ar": "\u0641\u0648\u0631\u062a\u0633\u0628\u0648\u0631", "name:bg": "\u0412\u044e\u0440\u0446\u0431\u0443\u0440\u0433", "name:de": "W\u00fcrzburg", "name:el": "\u0392\u03cd\u03c1\u03c4\u03c3\u03bc\u03c0\u03bf\u03c5\u03c1\u03b3\u03ba", "name:es": "Wurzburgo", "name:fr": "Wurtzbourg", "name:frr": "W\u00fcrzb\u00f6rj", "name:he": "\u05d5\u05d9\u05e8\u05e6\u05d1\u05d5\u05e8\u05d2", "name:hu": "W\u00fcrzburg", "name:ja": "\u30f4\u30e5\u30eb\u30c4\u30d6\u30eb\u30af", "name:ko": "\ubdd4\ub974\uce20\ubd80\ub974\ud06c", "name:la": "Herbipolis", "name:lt": "Viurcburgas", "name:pt": "Wurtzburgo", "name:ru": "\u0412\u044e\u0440\u0446\u0431\u0443\u0440\u0433", "name:sr": "\u0412\u0438\u0440\u0446\u0431\u0443\u0440\u0433", "openGeoDB:community_identification_number": "09679", "openGeoDB:license_plate_code": "W\u00dc", "openGeoDB:loc_id": "273", "openGeoDB:type": "Kreis", "place": "city", "population": "124700", "ref:LOCODE": "DEWUE", "wikidata": "Q2999", "wikipedia": "de:W\u00fcrzburg"}}, {"type": "node", "id": 25763730, "lat": 51.451283, "lon": 6.62843, "tags": {"ele": "30", "is_in": "Wesel,D\u00fcsseldorf,Nordrhein-Westfalen,Bundesrepublik Deutschland,Europe", "is_in:country_code": "DE", "is_in:iso_3166_2": "DE-NW", "name": "Moers", "name:de": "Moers", "name:hu": "Moers", "name:nl": "Meurs", "name:ru": "\u041c\u0451\u0440\u0441", "name:sr": "\u041c\u043e\u0440\u0441", "name:uk": "\u041c\u0435\u0440\u0441", "openGeoDB:community_identification_number": "05170024", "openGeoDB:license_plate_code": "WES", "openGeoDB:loc_id": "21036", "openGeoDB:postal_codes": "47441,47443,47445,47447", "openGeoDB:telephone_area_code": "02841", "place": "city", "population": "105102", "ref:LOCODE": "DEMOS", "wikidata": "Q21039640", "wikipedia": "de:Moers"}}, {"type": "node", "id": 26373169, "lat": 50.735851, "lon": 7.10066, "tags": {"is_in": "Regierungsbezirk K\u00f6ln,Nordrhein-Westfalen,Bundesrepublik Deutschland,Europe", "is_in:country_code": "DE", "is_in:iso_3166_2": "DE-NW", "name": "Bonn", "name:ar": "\u0628\u0648\u0646", "name:br": "Bonn", "name:de": "Bonn", "name:el": "\u0392\u03cc\u03bd\u03bd\u03b7", "name:hu": "Bonn", "name:ja": "\u30dc\u30f3", "name:la": "Bonna", "name:oc": "Bonn", "name:ru": "\u0411\u043e\u043d\u043d", "name:sr": "\u0411\u043e\u043d", "name:uk": "\u0411\u043e\u043d\u043d", "name:zh": "\u6ce2\u6069", "openGeoDB:community_identification_number": "05314", "openGeoDB:license_plate_code": "BN", "openGeoDB:loc_id": "413", "place": "city", "population": "330224", "population:date": "2018-12-31", "ref:LOCODE": "DEBON", "source:name:oc": "Lo Congr\u00e8s", "source:population": "http://www2.bonn.de/statistik/default.asp?2", "website": "https://www.bonn.de", "wikidata": "Q586", "wikipedia": "de:Bonn"}}, {"type": "node", "id": 26769661, "lat": 49.142291, "lon": 9.218655, "tags": {"de:amtlicher_gemeindeschluessel": "08125", "ele": "157", "is_in:country_code": "DE", "is_in:iso_3166_2": "DE-BW", "name": "Heilbronn", "openGeoDB:license_plate_code": "HN", "openGeoDB:loc_id": "584", "place": "city", "population": "118122", "ref:LOCODE": "DEHEN", "website": "https://www.heilbronn.de/", "wikidata": "Q715", "wikipedia": "de:Heilbronn"}}, {"type": "node", "id": 27350363, "lat": 51.4582235, "lon": 7.0158171, "tags": {"ele": "116", "name": "Essen", "name:ar": "\u0625\u0633\u0646", "name:bg": "\u0415\u0441\u0435\u043d", "name:el": "\u0388\u03c3\u03c3\u03b7", "name:fa": "\u0627\u0633\u0646", "name:he": "\u05d0\u05e1\u05df", "name:hu": "Essen", "name:ja": "\u30a8\u30c3\u30bb\u30f3", "name:ka": "\u10d4\u10e1\u10d4\u10dc\u10d8", "name:kk": "\u042d\u0441\u0441\u0435\u043d", "name:ko": "\uc5d0\uc13c", "name:ksh": "\u00c4\u00df\u00dfe", "name:la": "Assindia", "name:li": "Esse", "name:lt": "Esenas", "name:lv": "Esene", "name:mr": "\u090f\u0938\u0947\u0928", "name:nds": "Essen", "name:ru": "\u042d\u0441\u0441\u0435\u043d", "name:sr": "\u0415\u0441\u0435\u043d", "name:th": "\u0e40\u0e2d\u0e2a\u0e40\u0e0b\u0e34\u0e19", "name:ug": "\u00c9s\u00e9n", "name:uk": "\u0415\u0441\u0441\u0435\u043d", "name:zh": "\u57c3\u68ee", "openGeoDB:community_identification_number": "05113", "openGeoDB:license_plate_code": "E", "openGeoDB:loc_id": "426", "place": "city", "population": "569884", "ref:LOCODE": "DEESS", "wikidata": "Q2066", "wikipedia": "de:Essen"}}, {"type": "node", "id": 27418664, "lat": 50.1106444, "lon": 8.6820917, "tags": {"alt_name": "Mainhattan;FFM;Frankfurt a. M.", "alt_name:en": "Frankfort", "ele": "112", "name": "Frankfurt am Main", "name:an": "Frankfurt d'o Main", "name:ar": "\u0641\u0631\u0627\u0646\u0643\u0641\u0648\u0631\u062a", "name:ca": "Frankfurt del Main", "name:cs": "Frankfurt nad Mohanem", "name:de": "Frankfurt am Main", "name:el": "\u03a6\u03c1\u03b1\u03bd\u03ba\u03c6\u03bf\u03cd\u03c1\u03c4\u03b7", "name:en": "Frankfurt", "name:eo": "Frankfurto", "name:es": "Fr\u00e1ncfort del Meno", "name:fr": "Francfort-sur-le-Main", "name:he": "\u05e4\u05e8\u05e0\u05e7\u05e4\u05d5\u05e8\u05d8", "name:hr": "Frankfurt na Majni", "name:hsb": "Frankobrod nad Mohanom", "name:hu": "Frankfurt am Main", "name:it": "Francoforte sul Meno", "name:ja": "\u30d5\u30e9\u30f3\u30af\u30d5\u30eb\u30c8\u30fb\u30a2\u30e0\u30fb\u30de\u30a4\u30f3", "name:ko": "\ud504\ub791\ud06c\ud478\ub974\ud2b8", "name:la": "Francofurtum ad Moenum", "name:lt": "Frankfurtas prie Maino", "name:lv": "Frankfurte pie Mainas", "name:mk": "\u0424\u0440\u0430\u043d\u043a\u0444\u0443\u0440\u0442 \u043d\u0430 \u041c\u0430\u0458\u043d\u0430", "name:ms": "Frankfurt", "name:nds": "Frankfort an\u2019n Main", "name:pl": "Frankfurt nad Menem", "name:ro": "Frankfurt pe Main", "name:ru": "\u0424\u0440\u0430\u043d\u043a\u0444\u0443\u0440\u0442-\u043d\u0430-\u041c\u0430\u0439\u043d\u0435", "name:sk": "Frankfurt nad Mohanom", "name:sl": "Frankfurt na Majni", "name:sr": "\u0424\u0440\u0430\u043d\u043a\u0444\u0443\u0440\u0442 \u043d\u0430 \u041c\u0430\u0458\u043d\u0438", "name:uk": "\u0424\u0440\u0430\u043d\u043a\u0444\u0443\u0440\u0442-\u043d\u0430-\u041c\u0430\u0439\u043d\u0456", "name:zh": "\u6cd5\u5170\u514b\u798f", "official_name": "Frankfurt am Main", "openGeoDB:is_in_loc_id": "522", "openGeoDB:loc_id": "16601", "place": "city", "population": "701350", "ref:LOCODE": "DEFRA", "reg_name": "Frankfurt", "short_name": "Frankfurt", "wikidata": "Q1794", "wikipedia": "de:Frankfurt am Main"}}, {"type": "node", "id": 29063084, "lat": 50.8749804, "lon": 8.0227233, "tags": {"ele": "267", "is_in": "Kreis Siegen-Wittgenstein,Regierungsbezirk Arnsberg,Nordrhein-Westfalen,Bundesrepublik Deutschland,Europe", "is_in:country_code": "DE", "is_in:iso_3166_2": "DE-NW", "name": "Siegen", "name:ar": "\u0632\u064a\u063a\u0646", "name:fa": "\u0632\u06cc\u06af\u0646", "name:ru": "\u0417\u0438\u0433\u0435\u043d", "name:sr": "\u0417\u0438\u0433\u0435\u043d", "openGeoDB:community_identification_number": "05970040", "openGeoDB:license_plate_code": "SI", "openGeoDB:loc_id": "24252", "openGeoDB:postal_codes": "57072,57074,57076,57078,57080", "openGeoDB:telephone_area_code": "0271", "place": "city", "population": "99403", "ref:LOCODE": "DESGE", "wikidata": "Q3167", "wikipedia": "de:Siegen"}}, {"type": "node", "id": 29774529, "lat": 51.1981778, "lon": 6.6916476, "tags": {"de:amtlicher_gemeindeschluessel": "05162024", "ele": "40", "fixme:postal_code": "41460;41462;41464;41466;41468;41469;41470;41472", "is_in": "Rhein-Kreis Neuss,Regierungsbezirk D\u00fcsseldorf,Nordrhein-Westfalen,Bundesrepublik Deutschland,Europe", "is_in:country_code": "DE", "is_in:iso_3166_2": "DE-NW", "license_plate_code": "NE", "loc_name": "N\u00fcss", "name": "Neuss", "name:ar": "\u0646\u0648\u064a\u0633", "name:be": "\u041d\u043e\u0439\u0441", "name:bg": "\u041d\u043e\u0439\u0441", "name:ja": "\u30ce\u30a4\u30b9", "name:kk": "\u041d\u043e\u0439\u0441", "name:ko": "\ub178\uc774\uc2a4", "name:ksh": "N\u00fcss", "name:la": "Novaesium", "name:lt": "Noisas", "name:pnb": "\u0646\u06cc\u0648\u0633", "name:ru": "\u041d\u043e\u0439\u0441", "name:sr": "\u041d\u043e\u0458\u0441", "name:uk": "\u041d\u043e\u0439\u0441", "name:zh": "\u8bfa\u4f0a\u65af", "old_name": "Neu\u00df", "place": "city", "population": "159122", "population:date": "2017-12-31", "source:population": "https://www.neuss.de/wirtschaft/statistiken/bezirke/bezirkstabelle", "telephone_area_code": "02131", "website": "http://www.neuss.de/", "wikidata": "Q2948", "wikipedia": "de:Neuss"}}, {"type": "node", "id": 29923357, "lat": 50.9929303, "lon": 7.1277379, "tags": {"alt_name:mk": "\u0411\u0435\u0440\u0433\u0438\u0448 \u0413\u043b\u0430\u0434\u0431\u0430\u0445", "is_in": "Rheinisch-Bergischer Kreis,Regierungsbezirk K\u00f6ln,Nordrhein-Westfalen,Bundesrepublik Deutschland,Europe", "is_in:country_code": "DE", "is_in:iso_3166_2": "DE-NW", "name": "Bergisch Gladbach", "name:ar": "\u0628\u0631\u063a\u0634 \u063a\u0644\u0627\u062f\u0628\u0627\u062e", "name:fa": "\u0628\u0631\u06af\u06cc\u0634 \u06af\u0644\u0627\u062f\u0628\u0627\u062e", "name:mk": "\u0411\u0435\u0440\u0448\u043a\u0438 \u0413\u043b\u0430\u0434\u0431\u0430\u0445", "name:sr": "\u0411\u0435\u0440\u0433\u0438\u0448 \u0413\u043b\u0430\u0434\u0431\u0430\u0445", "note": "place auf town zur\u00fcckge\u00e4ndert, da kein \"Gro\u00dfstadtcharakter\"", "openGeoDB:loc_id": "14331", "place": "city", "population": "109425", "wikidata": "Q3117", "wikipedia": "de:Bergisch Gladbach"}}, {"type": "node", "id": 30137197, "lat": 52.2646577, "lon": 10.5236066, "tags": {"ele": "75", "is_in": "Braunschweig,Niedersachsen,Bundesrepublik Deutschland,Europe", "is_in:country_code": "DE", "is_in:iso_3166_2": "DE-NI", "name": "Braunschweig", "name:ar": "\u0628\u0631\u0648\u0646\u0634\u0648\u0627\u064a\u0643", "name:de": "Braunschweig", "name:en": "Brunswick", "name:es": "Brunswick", "name:fr": "Brunswick", "name:fy": "Breunswyk", "name:gd": "Brunswick", "name:is": "Br\u00fansv\u00edk", "name:la": "Brunsvicum", "name:lt": "Braun\u0161veigas", "name:lv": "Braun\u0161veiga", "name:nds": "Brunswiek", "name:nl": "Brunswijk", "name:pl": "Brunszwik", "name:ru": "\u0411\u0440\u0430\u0443\u043d\u0448\u0432\u0435\u0439\u0433", "name:sr": "\u0411\u0440\u0430\u0443\u043d\u0448\u0432\u0430\u0458\u0433", "name:tzl": "Br\u00e1unschvaic", "openGeoDB:community_identification_number": "03101", "openGeoDB:license_plate_code": "BS", "openGeoDB:loc_id": "324", "place": "city", "population": "248023", "population:date": "2017", "ref:LOCODE": "DEBWE", "wikidata": "Q2773", "wikipedia": "de:Braunschweig"}}, {"type": "node", "id": 30319497, "lat": 51.6143815, "lon": 7.1978546, "tags": {"ele": "85", "name": "Recklinghausen", "name:ar": "\u0631\u0643\u0644\u0646\u0647\u0648\u0632\u0646", "name:la": "Recklinghusium", "name:nds": "Ri\u00e4kelhusen", "name:ru": "\u0420\u0435\u043a\u043b\u0438\u043d\u0433\u0445\u0430\u0443\u0437\u0435\u043d", "name:sr": "\u0420\u0435\u043a\u043b\u0438\u043d\u0433\u0445\u0430\u0443\u0437\u0435\u043d", "openGeoDB:community_identification_number": "05562", "openGeoDB:is_in_loc_id": "183", "openGeoDB:license_plate_code": "RE", "openGeoDB:loc_id": "211", "openGeoDB:type": "Kreis", "place": "city", "population": "115320", "population:date": "2013", "ref:LOCODE": "DEREC", "wikidata": "Q3050"}}, {"type": "node", "id": 31172722, "lat": 52.4205588, "lon": 10.7861682, "tags": {"ele": "63", "is_in": "Niedersachsen,Bundesrepublik Deutschland,Europe", "is_in:country_code": "DE", "is_in:iso_3166_2": "DE-NI", "layer": "5", "name": "Wolfsburg", "name:ar": "\u0648\u0644\u0641\u0633\u0628\u0648\u0631\u063a", "name:de": "Wolfsburg", "name:es": "Wolfsburgo", "name:fa": "\u0648\u0644\u0641\u0633\u0628\u0648\u0631\u06af", "name:ja": "\u30f4\u30a9\u30eb\u30d5\u30b9\u30d6\u30eb\u30af", "name:la": "Lycopolis", "name:lt": "Volfsburgas", "name:nds": "Wulfsborg", "name:ru": "\u0412\u043e\u043b\u044c\u0444\u0441\u0431\u0443\u0440\u0433", "name:sr": "\u0412\u043e\u043b\u0444\u0441\u0431\u0443\u0440\u0433", "name:uk": "\u0412\u043e\u043b\u044c\u0444\u0441\u0431\u0443\u0440\u0433", "name:ur": "\u0648\u0648\u0644\u0641\u0633\u0628\u0631\u06af", "name:zh": "\u6c83\u5c14\u592b\u65af\u5821", "old_name": "Stadt des KdF-Wagens bei Fallersleben", "openGeoDB:community_identification_number": "03103", "openGeoDB:license_plate_code": "WOB", "openGeoDB:loc_id": "338", "place": "city", "population": "122457", "ref:LOCODE": "DEWOB", "wikidata": "Q3014", "wikipedia": "de:Wolfsburg"}}, {"type": "node", "id": 31941291, "lat": 49.7596208, "lon": 6.6441878, "tags": {"ele": "137", "name": "Trier", "name:ar": "\u062a\u0631\u064a\u0631", "name:ca": "Tr\u00e8veris", "name:cs": "Trev\u00edr", "name:de": "Trier", "name:en": "Trier", "name:eo": "Treviro", "name:es": "Tr\u00e9veris", "name:fr": "Tr\u00e8ves", "name:it": "Treviri", "name:ja": "\u30c8\u30ea\u30fc\u30a2", "name:la": "Augusta Treverorum", "name:lb": "Tr\u00e9ier", "name:pl": "Trewir", "name:pt": "Tr\u00e9veris", "name:ru": "\u0422\u0440\u0438\u0440", "name:sr": "\u0422\u0440\u0438\u0440", "name:uk": "\u0422\u0440\u0456\u0440", "name:zh": "\u7279\u91cc\u5c14", "old_name": "Augusta Treverorum", "place": "city", "population": "107233", "ref:LOCODE": "DETRI", "wikidata": "Q3138", "wikipedia": "de:Trier"}}, {"type": "node", "id": 31985630, "lat": 48.4919508, "lon": 9.2114144, "tags": {"alt_name:ar": "\u0631\u064a\u0648\u062a\u0644\u0646\u062c\u0646", "ele": "382", "is_in": "Reutlingen,T\u00fcbingen,Baden-W\u00fcrttemberg,Bundesrepublik Deutschland,Europe", "is_in:country_code": "DE", "is_in:iso_3166_2": "DE-BW", "name": "Reutlingen", "name:ar": "\u0631\u0648\u064a\u062a\u0644\u064a\u0646\u063a\u0646", "name:fr": "Reutlingen", "name:la": "Reutlingen", "name:nds": "Reutlingen", "name:ru": "\u0420\u043e\u0439\u0442\u043b\u0438\u043d\u0433\u0435\u043d", "name:sr": "\u0420\u043e\u0458\u0442\u043b\u0438\u043d\u0433\u0435\u043d", "name:uk": "\u0420\u043e\u0439\u0442\u043b\u0456\u043d\u0433\u0435\u043d", "openGeoDB:community_identification_number": "08415061", "openGeoDB:license_plate_code": "RT", "openGeoDB:loc_id": "23046", "openGeoDB:postal_codes": "72764,72760,72762,72766,72768,72770", "openGeoDB:telephone_area_code": "07121", "place": "city", "population": "112099", "ref:LOCODE": "DEREU", "wikidata": "Q3085", "wikipedia": "de:Reutlingen"}}, {"type": "node", "id": 33997995, "lat": 52.1315889, "lon": 11.6399609, "tags": {"capital": "4", "ele": "55", "name": "Magdeburg", "name:ar": "\u0645\u063a\u062f\u0628\u0648\u0631\u063a", "name:cs": "Magdeburk", "name:dsb": "Magdeburg", "name:eo": "Magdeburgo", "name:es": "Magdeburgo", "name:fa": "\u0645\u0627\u06af\u062f\u0628\u0648\u0631\u06af", "name:fr": "Magdebourg", "name:he": "\u05de\u05d2\u05d3\u05d1\u05d5\u05e8\u05d2", "name:hsb": "D\u017a\u011bwin", "name:hy": "\u0544\u0561\u0563\u0564\u0565\u0562\u0578\u0582\u0580\u0563", "name:it": "Magdeburgo", "name:ja": "\u30de\u30af\u30c7\u30d6\u30eb\u30af", "name:ka": "\u10db\u10d0\u10d2\u10d3\u10d4\u10d1\u10e3\u10e0\u10d2\u10d8", "name:ko": "\ub9c8\uadf8\ub370\ubd80\ub974\ud06c", "name:la": "Magdeburgum", "name:lt": "Magdeburgas", "name:lv": "Magdeburga", "name:nds": "Meideborg", "name:nl": "Maagdenburg", "name:ru": "\u041c\u0430\u0433\u0434\u0435\u0431\u0443\u0440\u0433", "name:sq": "Magdeburgu", "name:sr": "\u041c\u0430\u0433\u0434\u0435\u0431\u0443\u0440\u0433", "name:uk": "\u041c\u0430\u0433\u0434\u0435\u0431\u0443\u0440\u0491", "name:zh": "\u9a6c\u683c\u5fb7\u5821", "openGeoDB:community_identification_number": "15303", "openGeoDB:license_plate_code": "MD", "openGeoDB:loc_id": "551", "openGeoDB:type": "Landeshauptstadt", "place": "city", "population": "231021", "ref:LOCODE": "DEMAG", "website": "https://www.magdeburg.de/", "wikidata": "Q1733", "wikipedia": "de:Magdeburg"}}, {"type": "node", "id": 129992313, "lat": 52.1503721, "lon": 10.3593147, "tags": {"ele": "90", "end_date:old_name": "1952-01-24", "is_in": "Niedersachsen,Bundesrepublik Deutschland,Europe", "is_in:country_code": "DE", "is_in:iso_3166_2": "DE-NI", "name": "Salzgitter", "name:ar": "\u0632\u0627\u0644\u062a\u0633\u063a\u064a\u062a\u0631", "name:de": "Salzgitter", "name:fa": "\u0632\u0627\u0644\u062a\u0633\u06af\u06cc\u062a\u0631", "name:ja": "\u30b6\u30eb\u30c4\u30ae\u30c3\u30bf\u30fc", "name:lt": "Zalcgiteris", "name:nds": "Soltgitter", "name:ru": "\u0417\u0430\u043b\u044c\u0446\u0433\u0438\u0442\u0442\u0435\u0440", "name:sr": "\u0417\u0430\u043b\u0446\u0433\u0438\u0442\u0435\u0440", "old_name": "Watenstedt-Salzgitter", "openGeoDB:community_identification_number": "03102", "openGeoDB:license_plate_code": "SZ", "openGeoDB:loc_id": "334", "place": "city", "population": "98197", "population:date": "2013", "ref:LOCODE": "DESAR", "start_date": "1942-04-01", "wikidata": "Q3200", "wikipedia": "de:Salzgitter"}}, {"type": "node", "id": 240026265, "lat": 51.521581, "lon": 6.929204, "tags": {"ele": "55", "name": "Bottrop", "name:ar": "\u0628\u0648\u062a\u0631\u0648\u0628", "name:la": "Botropium", "name:nds": "Bottrop", "name:ru": "\u0411\u043e\u0442\u0440\u043e\u043f", "name:sr": "\u0411\u043e\u0442\u0440\u043e\u043f", "openGeoDB:community_identification_number": "05512000", "openGeoDB:license_plate_code": "BOT", "openGeoDB:loc_id": "14820", "openGeoDB:postal_codes": "46236,46238,46240,46242,46244", "openGeoDB:telephone_area_code": "02041", "place": "city", "population": "116055", "ref:LOCODE": "DEBOT", "wikidata": "Q3069", "wikipedia": "de:Bottrop"}}, {"type": "node", "id": 240028377, "lat": 50.0820384, "lon": 8.2416556, "tags": {"alt_name:la": "Aquae Mattiacorum", "capital": "4", "ele": "117", "name": "Wiesbaden", "name:ar": "\u0641\u064a\u0633\u0628\u0627\u062f\u0646", "name:de": "Wiesbaden", "name:ja": "\u30f4\u30a3\u30fc\u30b9\u30d0\u30fc\u30c7\u30f3", "name:la": "Aquae Mattiacae", "name:lt": "Vysbadenas", "name:nds": "Wiesbaden", "name:ru": "\u0412\u0438\u0441\u0431\u0430\u0434\u0435\u043d", "name:sr": "\u0412\u0438\u0441\u0431\u0430\u0434\u0435\u043d", "name:uk": "\u0412\u0456\u0441\u0431\u0430\u0434\u0435\u043d", "name:zh": "\u5a01\u65af\u5df4\u767b", "openGeoDB:community_identification_number": "06414000", "place": "city", "population": "273871", "population:date": "2013", "ref:LOCODE": "DEWIB", "website": "https://www.wiesbaden.de/", "wikidata": "Q1721", "wikipedia": "de:Wiesbaden"}}, {"type": "node", "id": 240037709, "lat": 52.0191005, "lon": 8.531007, "tags": {"ele": "118", "is_in": "Bielefeld,Regierungsbezirk Detmold,Nordrhein-Westfalen,Bundesrepublik Deutschland,Europe", "is_in:country_code": "DE", "is_in:iso_3166_2": "DE-NW", "name": "Bielefeld", "name:ar": "\u0628\u064a\u0644\u0641\u0644\u062f", "name:ja": "\u30d3\u30fc\u30ec\u30d5\u30a7\u30eb\u30c8", "name:la": "Bilivelda", "name:nds": "Builefeld", "name:ru": "\u0411\u0438\u043b\u0435\u0444\u0435\u043b\u044c\u0434", "name:sr": "\u0411\u0438\u043b\u0435\u0444\u0435\u043b\u0434", "name:uk": "\u0411\u0456\u043b\u0435\u0444\u0435\u043b\u044c\u0434", "openGeoDB:community_identification_number": "05711000", "openGeoDB:license_plate_code": "BI", "openGeoDB:loc_id": "14477", "openGeoDB:postal_codes": "33602,33604,33605,33607,33609,33611,33613,33615,33617,33619,33647,33649,33659,33689,33699,33719,33729,33739", "openGeoDB:telephone_area_code": "0521", "place": "city", "population": "328864", "ref:LOCODE": "DEBFE", "website": "http://bielefeld.de/", "wikidata": "Q2112", "wikipedia": "de:Bielefeld"}}, {"type": "node", "id": 240038130, "lat": 50.9777974, "lon": 11.0287364, "tags": {"capital": "4", "contact:website": "http://www.erfurt.de", "ele": "194", "is_in": "Erfurt,Th\u00fcringen,Bundesrepublik Deutschland,Europe", "is_in:country_code": "DE", "is_in:iso_3166_2": "DE-TH", "name": "Erfurt", "name:ar": "\u0625\u0631\u0641\u0648\u0631\u062a", "name:be": "\u042d\u0440\u0444\u0443\u0440\u0442", "name:bg": "\u0415\u0440\u0444\u0443\u0440\u0442", "name:de": "Erfurt", "name:dsb": "Erfurt", "name:el": "\u0395\u03c1\u03c6\u03bf\u03cd\u03c1\u03c4\u03b7", "name:eo": "Erfurto", "name:fa": "\u0627\u0631\u0641\u0648\u0631\u062a", "name:fr": "Erfurt", "name:hsb": "Jarobrod", "name:hy": "\u0537\u0580\u0586\u0578\u0582\u0580\u057f", "name:ja": "\u30a8\u30a2\u30d5\u30eb\u30c8", "name:ka": "\u10d4\u10e0\u10e4\u10e3\u10e0\u10e2\u10d8", "name:ko": "\uc5d0\ub974\ud478\ub974\ud2b8", "name:la": "Erfordia", "name:lt": "Erfurtas", "name:lv": "Erfurte", "name:ru": "\u042d\u0440\u0444\u0443\u0440\u0442", "name:sq": "Erfurti", "name:sr": "\u0415\u0440\u0444\u0443\u0440\u0442", "name:uk": "\u0415\u0440\u0444\u0443\u0440\u0442", "name:ur": "\u0627\u0631\u0641\u0631\u0679", "name:zh": "\u57c3\u5c14\u798f\u7279", "openGeoDB:community_identification_number": "16051000", "openGeoDB:license_plate_code": "EF", "openGeoDB:loc_id": "16263", "openGeoDB:postal_codes": "99084,99085,99086,99087,99089,99091,99092,99094,99096,99097,99098,99099,99100,99102", "openGeoDB:telephone_area_code": "0361", "place": "city", "population": "213332", "ref:LOCODE": "DEERF", "source": "http://wiki.openstreetmap.org/wiki/Import/Catalogue/Kreisgrenzen_Deutschland_2005", "wiki:osm": "http://wiki.openstreetmap.org/wiki/Erfurt", "wikidata": "Q1729", "wikipedia": "de:Erfurt"}}, {"type": "node", "id": 240041315, "lat": 50.776351, "lon": 6.083862, "tags": {"alt_name": "Bad Aachen", "ele": "173", "name": "Aachen", "name:ar": "\u0622\u062e\u0646", "name:ca": "Aquisgr\u00e0", "name:cs": "C\u00e1chy", "name:de": "Aachen", "name:eo": "A\u0125eno", "name:es": "Aquisgr\u00e1n", "name:eu": "Akisgran", "name:fa": "\u0622\u062e\u0646", "name:fr": "Aix-la-Chapelle", "name:it": "Aquisgrana", "name:la": "Aquisgranum", "name:lb": "Oochen", "name:nb": "Aachen", "name:nds": "Aken", "name:nl": "Aken", "name:pl": "Akwizgran", "name:pt": "Aquisgr\u00e3o", "name:ru": "\u0410\u0445\u0435\u043d", "name:sr": "\u0410\u0445\u0435\u043d", "name:ur": "\u0622\u062e\u0646", "openGeoDB:community_identification_number": "05313000", "openGeoDB:license_plate_code": "AC", "openGeoDB:loc_id": "13352", "openGeoDB:postal_codes": "52062,52064,52066,52068,52070,52072,52074,52076,52078,52080", "openGeoDB:telephone_area_code": "0241", "place": "city", "population": "241683", "ref:LOCODE": "DEAAH", "source:population": "Landesbetrieb Information und Technik Nordrhein-Westfalen (IT.NRW)", "website": "http://aachen.de/", "wikidata": "Q1017", "wikipedia": "de:Aachen"}}, {"type": "node", "id": 240046032, "lat": 48.8908846, "lon": 8.7029532, "tags": {"alt_name:ar": "\u0628\u0641\u0648\u0631\u062a\u0633\u0647\u0627\u064a\u0645", "ele": "261", "is_in": "Pforzheim,Karlsruhe,Baden-W\u00fcrttemberg,Bundesrepublik Deutschland,Europe", "is_in:country_code": "DE", "is_in:iso_3166_2": "DE-BW", "name": "Pforzheim", "name:ar": "\u0641\u0648\u0631\u062a\u0633\u0647\u0627\u064a\u0645", "name:ja": "\u30d7\u30d5\u30a9\u30eb\u30c4\u30cf\u30a4\u30e0", "name:la": "Phorca", "name:ru": "\u041f\u0444\u043e\u0440\u0446\u0433\u0435\u0439\u043c", "name:sr": "\u041f\u0444\u043e\u0440\u0446\u0445\u0430\u0458\u043c", "name:zh": "\u666e\u798f\u5c14\u8328\u6d77\u59c6", "openGeoDB:community_identification_number": "08231000", "openGeoDB:is_in_loc_id": "353", "openGeoDB:layer": "6", "openGeoDB:license_plate_code": "PF", "openGeoDB:loc_id": "22432", "openGeoDB:postal_codes": "75175,75172,75173,75177,75179,75180,75181", "openGeoDB:telephone_area_code": "07231", "place": "city", "population": "117754", "ref:LOCODE": "DEPFO", "wikidata": "Q3046", "wikipedia": "de:Pforzheim"}}, {"type": "node", "id": 240048753, "lat": 51.3331205, "lon": 6.5623343, "tags": {"ele": "38", "is_in": "Regierungsbezirk D\u00fcsseldorf,Nordrhein-Westfalen,Bundesrepublik Deutschland,Europe", "is_in:country_code": "DE", "is_in:iso_3166_2": "DE-NW", "name": "Krefeld", "name:ar": "\u0643\u0631\u064a\u0641\u0644\u062f", "name:de": "Krefeld", "name:fa": "\u06a9\u0631\u0641\u0644\u062f", "name:ja": "\u30af\u30ec\u30fc\u30d5\u30a7\u30eb\u30c8", "name:la": "Crefeldia", "name:ru": "\u041a\u0440\u0435\u0444\u0435\u043b\u044c\u0434", "name:sr": "\u041a\u0440\u0435\u0444\u0435\u043b\u0434", "name:uk": "\u041a\u0440\u0435\u0444\u0435\u043b\u044c\u0434", "name:ur": "\u06a9\u0631\u06cc\u0641\u06cc\u0644\u062f", "openGeoDB:community_identification_number": "05114000", "openGeoDB:license_plate_code": "KR", "openGeoDB:loc_id": "19658", "openGeoDB:postal_codes": "47798,47799,47800,47802,47803,47804,47805,47807,47809,47829,47839", "openGeoDB:telephone_area_code": "02151", "place": "city", "population": "222058", "population:date": "2013", "ref:LOCODE": "DEKRE", "wikidata": "Q2805", "wikipedia": "de:Krefeld"}}, {"type": "node", "id": 240052693, "lat": 51.5110321, "lon": 7.0960124, "tags": {"ele": "48", "name": "Gelsenkirchen", "name:ar": "\u063a\u0644\u0632\u0646\u0643\u064a\u0631\u0634\u0646", "name:nds": "Gelsenki\u00e4rken", "place": "city", "population": "260368", "ref:LOCODE": "DEGEK", "wikidata": "Q2765", "wikipedia": "de:Gelsenkirchen"}}, {"type": "node", "id": 240055326, "lat": 51.434999, "lon": 6.759562, "tags": {"ele": "33", "name": "Duisburg", "name:ar": "\u062f\u0648\u064a\u0633\u0628\u0648\u0631\u063a", "name:de": "Duisburg", "name:fr": "Duisbourg", "name:ja": "\u30c7\u30e5\u30fc\u30b9\u30d6\u30eb\u30af", "name:la": "Thuiscoburgum", "name:nds": "Duisborg", "name:ru": "\u0414\u0443\u0439\u0441\u0431\u0443\u0440\u0433", "name:sr": "\u0414\u0443\u0438\u0437\u0431\u0443\u0440\u0433", "name:uk": "\u0414\u0443\u0439\u0441\u0431\u0443\u0440\u0433", "name:zh": "\u675c\u4f0a\u65af\u5821", "openGeoDB:community_identification_number": "05112000", "openGeoDB:license_plate_code": "DU", "openGeoDB:loc_id": "15883", "openGeoDB:postal_codes": "47051,47053,47055,47057,47058,47059,47119,47137,47138,47139,47166,47167,47169,47178,47179,47198,47199,47226,47228,47229,47239,47249,47259,47269,47279", "openGeoDB:telephone_area_code": "0203", "place": "city", "population": "486855", "ref:LOCODE": "DEDUI", "wikidata": "Q2100", "wikipedia": "de:Duisburg"}}, {"type": "node", "id": 240056905, "lat": 52.266837, "lon": 8.049741, "tags": {"ele": "63", "is_in": "Niedersachsen,Bundesrepublik Deutschland,Europe", "is_in:country_code": "DE", "is_in:iso_3166_2": "DE-NI", "name": "Osnabr\u00fcck", "name:ar": "\u0623\u0633\u0646\u0627\u0628\u0631\u0648\u0643", "name:bg": "\u041e\u0441\u043d\u0430\u0431\u0440\u044e\u043a", "name:de": "Osnabr\u00fcck", "name:he": "\u05d0\u05d5\u05e1\u05e0\u05d1\u05e8\u05d9\u05e7", "name:ja": "\u30aa\u30b9\u30ca\u30d6\u30ea\u30e5\u30c3\u30af", "name:la": "Osnabruga", "name:nds": "Ossenbr\u00fcgge", "name:nl": "Osnabr\u00fcck", "name:ru": "\u041e\u0441\u043d\u0430\u0431\u0440\u044e\u043a", "name:sr": "\u041e\u0441\u043d\u0430\u0431\u0440\u0438\u043a", "name:uk": "\u041e\u0441\u043d\u0430\u0431\u0440\u044e\u043a", "name:zh": "\u5965\u65af\u7eb3\u5e03\u5415\u514b", "openGeoDB:community_identification_number": "03404000", "openGeoDB:license_plate_code": "OS", "openGeoDB:loc_id": "22195", "openGeoDB:postal_codes": "49074,49076,49078,49080,49082,49084,49086,49088,49090", "openGeoDB:telephone_area_code": "0541", "place": "city", "population": "167730", "ref:LOCODE": "DEOSN", "wikidata": "Q2916", "wikipedia": "de:Osnabr\u00fcck"}}, {"type": "node", "id": 240058050, "lat": 49.4093582, "lon": 8.694724, "tags": {"alt_name:ar": "\u0647\u0627\u064a\u062f\u0644\u0628\u0631\u062c", "de:amtlicher_gemeindeschluessel": "08221000", "ele": "114", "is_in:country_code": "DE", "is_in:iso_3166_2": "DE-BW", "name": "Heidelberg", "name:ar": "\u0647\u0627\u064a\u062f\u0644\u0628\u0631\u063a", "name:de": "Heidelberg", "name:el": "\u03a7\u03b1\u03ca\u03b4\u03b5\u03bb\u03b2\u03ad\u03c1\u03b3\u03b7", "name:en": "Heidelberg", "name:fr": "Heidelberg", "name:ja": "\u30cf\u30a4\u30c7\u30eb\u30d9\u30eb\u30af", "name:la": "Heidelberga", "name:nds": "Heidelbarg", "name:pfl": "Haidlb\u00e4rsch", "name:ru": "\u0425\u0430\u0439\u0434\u0435\u043b\u044c\u0431\u0435\u0440\u0433", "name:sr": "\u0425\u0430\u0458\u0434\u0435\u043b\u0431\u0435\u0440\u0433", "name:uk": "\u0413\u0430\u0439\u0434\u0435\u043b\u044c\u0431\u0435\u0440\u0433", "name:zh": "\u6d77\u5fb7\u5821", "place": "city", "population": "152113", "ref:LOCODE": "DEHEI", "wikidata": "Q2966", "wikipedia": "de:Heidelberg"}}, {"type": "node", "id": 240060919, "lat": 49.489591, "lon": 8.467236, "tags": {"de:amtlicher_gemeindeschluessel": "08222000", "is_in:country_code": "DE", "is_in:iso_3166_2": "DE-BW", "name": "Mannheim", "name:ar": "\u0645\u0627\u0646\u0647\u0627\u064a\u0645", "name:da": "Mannheim", "name:de": "Mannheim", "name:el": "\u039c\u03b1\u03bd\u03bd\u03c7\u03b5\u0390\u03bc\u03b7", "name:en": "Mannheim", "name:fr": "Mannheim", "name:it": "Mannheim", "name:ja": "\u30de\u30f3\u30cf\u30a4\u30e0", "name:la": "Manhemium", "name:lb": "Mannheim", "name:pfl": "Mannem", "name:ru": "\u041c\u0430\u043d\u0433\u0435\u0439\u043c", "name:sr": "\u041c\u0430\u043d\u0445\u0430\u0458\u043c", "name:tr": "Mannheim", "name:uk": "\u041c\u0430\u043d\u043d\u0433\u0435\u0439\u043c", "name:zh": "\u66fc\u6d77\u59c6", "place": "city", "population": "307640", "ref:LOCODE": "DEMGH", "website": "https://www.mannheim.de/", "wikidata": "Q2119", "wikipedia": "de:Mannheim"}}, {"type": "node", "id": 240062631, "lat": 51.1946983, "lon": 6.4353641, "tags": {"ele": "70", "is_in": "Regierungsbezirk D\u00fcsseldorf,Nordrhein-Westfalen,Bundesrepublik Deutschland,Europe", "is_in:country_code": "DE", "is_in:iso_3166_2": "DE-NW", "name": "M\u00f6nchengladbach", "name:ar": "\u0645\u0648\u0646\u0634\u0646\u063a\u0644\u062f\u0628\u062e", "name:fr": "M\u00f6nchengladbach", "name:ru": "\u041c\u0451\u043d\u0445\u0435\u043d\u0433\u043b\u0430\u0434\u0431\u0430\u0445", "name:sr": "\u041c\u0435\u043d\u0445\u0435\u043d\u0433\u043b\u0430\u0434\u0431\u0430\u0445", "openGeoDB:community_identification_number": "05116000", "openGeoDB:license_plate_code": "MG", "openGeoDB:loc_id": "21015", "openGeoDB:postal_codes": "41061,41063,41065,41066,41068,41069,41169,41179,41189,41199,41236,41238,41239", "openGeoDB:telephone_area_code": "02161", "place": "city", "population": "255430", "ref:LOCODE": "DEMGL", "wikidata": "Q2758", "wikipedia": "de:M\u00f6nchengladbach"}}, {"type": "node", "id": 240063145, "lat": 51.1798706, "lon": 7.1943544, "tags": {"is_in:country_code": "DE", "is_in:iso_3166_2": "DE-NW", "name": "Remscheid", "name:ar": "\u0631\u0645\u0634\u0627\u064a\u062f", "name:ru": "\u0420\u0435\u043c\u0448\u0430\u0439\u0434", "name:sr": "\u0420\u0435\u043c\u0448\u0430\u0458\u0434", "openGeoDB:community_identification_number": "05120000", "openGeoDB:license_plate_code": "RS", "openGeoDB:loc_id": "22989", "openGeoDB:postal_codes": "42853,42855,42857,42859,42897,42899", "openGeoDB:telephone_area_code": "02191", "place": "city", "population": "116827", "ref:LOCODE": "DERED", "wikidata": "Q3097", "wikipedia": "de:Remscheid"}}, {"type": "node", "id": 240072040, "lat": 50.1055002, "lon": 8.7610698, "tags": {"alt_name": "Offenbach", "ele": "98", "loc_name": "Offenbach", "name": "Offenbach am Main", "name:ar": "\u0623\u0648\u0641\u0646\u0628\u0627\u062e \u0639\u0644\u0649 \u0645\u0627\u064a\u0646", "name:de": "Offenbach am Main", "name:es": "Offenbach del Meno", "name:fr": "Offenbach-sur-le-Main", "name:ja": "\u30aa\u30c3\u30d5\u30a7\u30f3\u30d0\u30c3\u30cf", "name:la": "Offenbachium ad Moenum", "name:ru": "\u041e\u0444\u0444\u0435\u043d\u0431\u0430\u0445", "name:sr": "\u041e\u0444\u0435\u043d\u0431\u0430\u0445 \u043d\u0430 \u041c\u0430\u0458\u043d\u0438", "name:zh": "\u7f8e\u56e0\u6cb3\u7554\u5965\u82ac\u5df4\u8d6b", "openGeoDB:community_identification_number": "06413000", "openGeoDB:is_in_loc_id": "527", "openGeoDB:license_plate_code": "OF", "openGeoDB:loc_id": "22108", "openGeoDB:postal_codes": "63065,63067,63069,63071,63073,63075", "openGeoDB:telephone_area_code": "069", "place": "city", "population": "136824", "population:date": "2018-06-30", "ref:LOCODE": "DEOFF", "source:population": "Melderegister Stadt Offenbach a.M.", "wikidata": "Q3042", "wikipedia": "de:Offenbach am Main"}}, {"type": "node", "id": 240072888, "lat": 51.1712468, "lon": 7.0838996, "tags": {"is_in": "Regierungsbezirk D\u00fcsseldorf,Nordrhein-Westfalen,Bundesrepublik Deutschland,Europe", "is_in:country_code": "DE", "is_in:iso_3166_2": "DE-NW", "name": "Solingen", "name:ar": "\u0632\u0648\u0644\u064a\u0646\u063a\u0646", "name:ja": "\u30be\u30fc\u30ea\u30f3\u30b2\u30f3", "name:ru": "\u0417\u043e\u043b\u0438\u043d\u0433\u0435\u043d", "name:sr": "\u0417\u043e\u043b\u0438\u043d\u0433\u0435\u043d", "openGeoDB:community_identification_number": "05122000", "openGeoDB:license_plate_code": "SG", "openGeoDB:loc_id": "24338", "openGeoDB:postal_codes": "42651,42653,42655,42657,42659,42697,42699,42719", "openGeoDB:telephone_area_code": "0212", "place": "city", "population": "164205", "ref:LOCODE": "DESOL", "wikidata": "Q2942", "wikipedia": "de:Solingen"}}, {"type": "node", "id": 240074718, "lat": 49.872775, "lon": 8.651177, "tags": {"name": "Darmstadt", "name:ar": "\u062f\u0627\u0631\u0645\u0634\u062a\u0627\u062a", "name:de": "Darmstadt", "name:ja": "\u30c0\u30eb\u30e0\u30b7\u30e5\u30bf\u30c3\u30c8", "name:la": "Darmstadium", "name:nds": "Darmstadt", "name:ru": "\u0414\u0430\u0440\u043c\u0448\u0442\u0430\u0434\u0442", "name:sr": "\u0414\u0430\u0440\u043c\u0448\u0442\u0430\u0442", "name:zh": "\u8fbe\u59c6\u65bd\u5854\u7279", "openGeoDB:community_identification_number": "06411000", "openGeoDB:is_in_loc_id": "517", "openGeoDB:layer": "6", "openGeoDB:license_plate_code": "DA", "openGeoDB:loc_id": "15443", "openGeoDB:postal_codes": "64283,64285,64287,64289,64291,64293,64295,64297", "openGeoDB:telephone_area_code": "06151", "openGeoDB:type": "Wissenschaftsstadt", "place": "city", "population": "154002", "ref:LOCODE": "DEDAR", "wikidata": "Q2973", "wikipedia": "de:Darmstadt"}}, {"type": "node", "id": 240090160, "lat": 50.9281717, "lon": 11.5879359, "tags": {"contact:facebook": "https://www.facebook.com/jena.lichtstadt", "contact:twitter": "https://twitter.com/jenalichtstadt", "contact:website": "http://www.jena.de", "ele": "143", "is_in": "Jena,Th\u00fcringen,Bundesrepublik Deutschland,Europe", "is_in:country_code": "DE", "is_in:iso_3166_2": "DE-TH", "name": "Jena", "name:ar": "\u064a\u064a\u0646\u0627", "name:de": "Jena", "name:fa": "\u06cc\u06cc\u0646\u0627", "name:ja": "\u30a4\u30a7\u30fc\u30ca", "name:lt": "J\u0117na", "name:ru": "\u0419\u0435\u043d\u0430", "name:sr": "\u0408\u0435\u043d\u0430", "name:ur": "\u06cc\u0626\u0646\u0627", "name:zh": "\u8036\u62ff", "openGeoDB:loc_id": "18931", "place": "city", "population": "111343", "population:date": "2019-12-31", "ref:LOCODE": "DEJEN", "wikidata": "Q3150", "wikipedia": "de:Jena"}}, {"type": "node", "id": 240090728, "lat": 51.264018, "lon": 7.1780374, "tags": {"is_in": "Regierungsbezirk D\u00fcsseldorf,Nordrhein-Westfalen,Bundesrepublik Deutschland,Europe", "is_in:country_code": "DE", "is_in:iso_3166_2": "DE-NW", "name": "Wuppertal", "name:ar": "\u0641\u0648\u0628\u0631\u062a\u0627\u0644", "name:de": "Wuppertal", "name:el": "\u0392\u03bf\u03cd\u03c0\u03b5\u03c1\u03c4\u03b1\u03bb", "name:fa": "\u0648\u0648\u067e\u0631\u062a\u0627\u0644", "name:ja": "\u30f4\u30c3\u30d1\u30fc\u30bf\u30fc\u30eb", "name:la": "Wuppertal", "name:nds": "Wupperdaal", "name:ru": "\u0412\u0443\u043f\u043f\u0435\u0440\u0442\u0430\u043b\u044c", "name:sr": "\u0412\u0443\u043f\u0435\u0440\u0442\u0430\u043b", "name:ur": "\u0648\u0648\u067e\u0627\u0679\u0627\u0644", "name:zh": "\u4f0d\u73c0\u5854\u5c14", "openGeoDB:community_identification_number": "05124000", "openGeoDB:license_plate_code": "W", "openGeoDB:loc_id": "26488", "openGeoDB:postal_codes": "42275,42103,42105,42107,42109,42111,42113,42115,42117,42119,42277,42279,42281,42283,42285,42287,42289,42327,42329,42349,42369,42389,42399", "openGeoDB:telephone_area_code": "0202", "place": "city", "population": "361077", "ref:LOCODE": "DEWUP", "website": "https://www.wuppertal.de", "wikidata": "Q2107", "wikipedia": "de:Wuppertal"}}, {"type": "node", "id": 240092010, "lat": 47.9960901, "lon": 7.8494005, "tags": {"alt_name": "Freiburg i. Br.", "capital": "5", "contact:website": "https://www.freiburg.de", "ele": "278", "name": "Freiburg im Breisgau", "name:af": "Freiburg im Breisgau", "name:ar": "\u0641\u0631\u0627\u064a\u0628\u0648\u0631\u063a", "name:bg": "\u0424\u0440\u0430\u0439\u0431\u0443\u0440\u0433", "name:ca": "Friburg de Brisg\u00f2via", "name:cs": "Freiburg im Breisgau", "name:da": "Freiburg im Breisgau", "name:de": "Freiburg im Breisgau", "name:el": "\u03a6\u03c1\u03b5\u03b9\u03b2\u03bf\u03cd\u03c1\u03b3\u03bf", "name:en": "Freiburg im Breisgau", "name:eo": "Frajburgo en Breisga\u016d", "name:es": "Friburgo de Brisgovia", "name:et": "Freiburg", "name:fa": "\u0641\u0631\u0627\u06cc\u0628\u0648\u0631\u06af", "name:fi": "Freiburg im Breisgau", "name:fr": "Fribourg-en-Brisgau", "name:gsw": "Friburg im Brisgau", "name:he": "\u05e4\u05e8\u05d9\u05d9\u05d1\u05d5\u05e8\u05d2 \u05d1\u05d1\u05e8\u05d9\u05d9\u05e1\u05d2\u05d0\u05d5", "name:hr": "Freiburg", "name:hu": "Freiburg im Breisgau", "name:id": "Freiburg im Breisgau", "name:io": "Freiburg im Breisgau", "name:it": "Friburgo in Brisgovia", "name:ja": "\u30d5\u30e9\u30a4\u30d6\u30eb\u30af", "name:jbo": "Freiburg", "name:ka": "\u10e4\u10e0\u10d0\u10d8\u10d1\u10e3\u10e0\u10d2\u10d8", "name:ko": "\ud504\ub77c\uc774\ubd80\ub974\ud06c", "name:la": "Friburgum Brisgoviae", "name:lb": "Freiburg im Breisgau", "name:lv": "Freiburga", "name:mk": "\u0424\u0440\u0430\u0458\u0431\u0443\u0440\u0433 \u043d\u0430 \u0411\u0440\u0430\u0458\u0437\u0433\u0430\u0443", "name:mr": "\u092b\u094d\u0930\u093e\u092f\u092c\u0941\u0930\u094d\u0917", "name:nl": "Freiburg im Breisgau", "name:nn": "Freiburg im Breisgau", "name:no": "Freiburg im Breisgau", "name:oc": "Friborg de Brisg\u00f2via", "name:pl": "Fryburg Bryzgowijski", "name:pt": "Freiburg im Breisgau", "name:ro": "Freiburg", "name:ru": "\u0424\u0440\u0430\u0439\u0431\u0443\u0440\u0433-\u0432-\u0411\u0440\u0430\u0439\u0441\u0433\u0430\u0443", "name:scn": "Friburgu", "name:sh": "Freiburg", "name:sk": "Freiburg", "name:sq": "Freiburg im Breisgau", "name:sr": "\u0424\u0440\u0430\u0458\u0431\u0443\u0440\u0433", "name:sv": "Freiburg im Breisgau", "name:tr": "Freiburg im Breisgau", "name:ur": "\u0641\u0631\u06cc \u0628\u0631\u06af", "name:vec": "Friburgo en Brisgovia", "name:vi": "Freiburg im Breisgau", "name:vo": "Freiburg (Bad\u00e4n)", "name:zh": "\u5f17\u83b1\u5821", "openGeoDB:community_identification_number": "08311000", "openGeoDB:license_plate_code": "FR", "openGeoDB:loc_id": "16633", "openGeoDB:postal_codes": "79098,79100,79102,79104,79106,79108,79110,79111,79112,79114,79115,79117", "openGeoDB:telephone_area_code": "0761", "place": "city", "population": "220286", "ref:LOCODE": "DEFBG", "short_name": "Freiburg", "wikidata": "Q2833", "wikipedia": "de:Freiburg im Breisgau"}}, {"type": "node", "id": 240093234, "lat": 49.4432174, "lon": 7.7689951, "tags": {"name": "Kaiserslautern", "name:ar": "\u0643\u0627\u064a\u0632\u0631\u0633\u0644\u0648\u062a\u0631\u0646", "name:ja": "\u30ab\u30a4\u30b6\u30fc\u30b9\u30e9\u30a6\u30c6\u30eb\u30f3", "name:ru": "\u041a\u0430\u0439\u0437\u0435\u0440\u0441\u043b\u0430\u0443\u0442\u0435\u0440\u043d", "name:sr": "\u041a\u0430\u0458\u0437\u0435\u0440\u0441\u043b\u0430\u0443\u0442\u0435\u0440\u043d", "name:zh": "\u51ef\u6492\u65af\u52b3\u6ed5", "place": "city", "population": "97162", "ref:LOCODE": "DEKLT", "wikidata": "Q3758", "wikipedia": "de:Kaiserslautern"}}, {"type": "node", "id": 240099833, "lat": 51.4818111, "lon": 7.2196635, "tags": {"ele": "100", "name": "Bochum", "name:ar": "\u0628\u0648\u062e\u0648\u0645", "name:fr": "Bochum", "name:la": "Bochum", "name:nds": "Baukem", "name:ru": "\u0411\u043e\u0445\u0443\u043c", "name:sr": "\u0411\u043e\u0445\u0443\u043c", "name:uk": "\u0411\u043e\u0445\u0443\u043c", "name:zh": "\u6ce2\u9e3f", "name:zh-TW": "\u6ce2\u6d2a", "openGeoDB:community_identification_number": "05911000", "openGeoDB:license_plate_code": "BO", "openGeoDB:loc_id": "14634", "openGeoDB:postal_codes": "44787,44789,44791,44793,44795,44797,44799,44801,44803,44805,44807,44809,44866,44867,44869,44879,44892,44894", "openGeoDB:telephone_area_code": "0234", "place": "city", "population": "371075", "ref:LOCODE": "DEBOM", "website": "https://www.bochum.de/", "wikidata": "Q2103", "wikipedia": "de:Bochum"}}, {"type": "node", "id": 240102654, "lat": 50.3533278, "lon": 7.5943951, "tags": {"alt_name:en": "Coblenz", "ele": "73", "is_in:country_code": "DE", "is_in:iso_3166_2": "DE-RP", "loc_name": "Kowelenz", "name": "Koblenz", "name:ar": "\u0643\u0648\u0628\u0644\u0646\u062a\u0633", "name:br": "Koblenz", "name:ca": "Coblen\u00e7a", "name:cs": "Koblenec", "name:de": "Koblenz", "name:es": "Coblenza", "name:fr": "Coblence", "name:it": "Coblenza", "name:ja": "\u30b3\u30d6\u30ec\u30f3\u30c4", "name:la": "Confluentes", "name:lb": "Kueblenz", "name:nds": "Koblenz", "name:pl": "Koblencja", "name:pt": "Coblen\u00e7a", "name:ru": "\u041a\u043e\u0431\u043b\u0435\u043d\u0446", "name:sr": "\u041a\u043e\u0431\u043b\u0435\u043d\u0446", "name:zh": "\u79d1\u5e03\u4f26\u8328", "place": "city", "population": "110643", "ref:LOCODE": "DEKOB", "wikidata": "Q3104", "wikipedia": "de:Koblenz"}}, {"type": "node", "id": 240109189, "lat": 52.5170365, "lon": 13.3888599, "tags": {"admin_level": "2", "blind:description:de": "Auf www.berlinfuerblinde.de gibt es einen kostenlosen Audioguide und weitere Informationen.", "capital": "yes", "capital_ISO3166-1": "yes", "ele": "35", "email": "info@berlin.de", "name": "Berlin", "name:ab": "\u0411\u0435\u0440\u043b\u0438\u043d", "name:af": "Berlyn", "name:als": "Berlin", "name:am": "\u1260\u122d\u120a\u1295", "name:an": "Berl\u00edn", "name:ang": "Berlin", "name:ar": "\u0628\u0631\u0644\u064a\u0646", "name:arc": "\u0712\u072a\u0720\u071d\u0722", "name:arz": "\u0628\u064a\u0631\u0644\u064a\u0646", "name:ast": "Berl\u00edn", "name:az": "Berlin", "name:ba": "\u0411\u0435\u0440\u043b\u0438\u043d", "name:bar": "Berlin", "name:bat-smg": "Berl\u012bns", "name:be": "\u0411\u0435\u0440\u043b\u0456\u043d", "name:be-tarask": "\u0411\u044d\u0440\u043b\u0456\u043d", "name:bg": "\u0411\u0435\u0440\u043b\u0438\u043d", "name:bi": "Berlin", "name:bn": "\u09ac\u09be\u09b0\u09cd\u09b2\u09bf\u09a8", "name:bo": "\u0f54\u0f7a\u0f0b\u0f63\u0f72\u0f44\u0f0b", "name:br": "Berlin", "name:bs": "Berlin", "name:bxr": "\u0411\u0435\u0440\u043b\u0438\u043d", "name:ca": "Berl\u00edn", "name:cbk-zam": "Berl\u00edn", "name:ckb": "\u0628\u06d5\u0631\u0644\u06cc\u0646", "name:co": "Berlinu", "name:crh": "Berlin", "name:cs": "Berl\u00edn", "name:csb": "Berl\u00ebno", "name:cu": "\u0411\u0435\u0440\u043b\u0438\u043d\u044a", "name:cv": "\u0411\u0435\u0440\u043b\u0438\u043d", "name:cy": "Berlin", "name:da": "Berlin", "name:de": "Berlin", "name:diq": "Berlin", "name:dsb": "Barli\u0144", "name:el": "\u0392\u03b5\u03c1\u03bf\u03bb\u03af\u03bd\u03bf", "name:en": "Berlin", "name:eo": "Berlino", "name:es": "Berl\u00edn", "name:et": "Berliin", "name:eu": "Berlin", "name:ext": "Berl\u00edn", "name:fa": "\u0628\u0631\u0644\u06cc\u0646", "name:fi": "Berliini", "name:fiu-vro": "Berliin", "name:fo": "Berlin", "name:fr": "Berlin", "name:frp": "B\u00e8rlin", "name:fur": "Berlin", "name:fy": "Berlyn", "name:ga": "Beirl\u00edn", "name:gan": "\u67cf\u6797", "name:gd": "Berlin", "name:gl": "Berl\u00edn", "name:gn": "Berlin", "name:gv": "Berleen", "name:haw": "Pelelina", "name:he": "\u05d1\u05e8\u05dc\u05d9\u05df", "name:hi": "\u092c\u0930\u094d\u0932\u093f\u0928", "name:hr": "Berlin", "name:hsb": "Berlin", "name:ht": "B\u00e8len", "name:hu": "Berlin", "name:hy": "\u0532\u0565\u057c\u056c\u056b\u0576", "name:ia": "Berlin", "name:id": "Berlin", "name:ie": "Berlin", "name:ilo": "Berlin, Alemania", "name:io": "Berlin", "name:is": "Berl\u00edn", "name:it": "Berlino", "name:iu": "\u1431\u1550\u14d6\u14d0", "name:ja": "\u30d9\u30eb\u30ea\u30f3", "name:jbo": "berlin", "name:jv": "Berlin", "name:ka": "\u10d1\u10d4\u10e0\u10da\u10d8\u10dc\u10d8", "name:kab": "Berlin", "name:kbd": "\u0411\u0435\u0440\u043b\u0438\u043d", "name:kk": "\u0411\u0435\u0440\u043b\u0438\u043d", "name:kn": "\u0cac\u0cc6\u0cb0\u0ccd\u0cb2\u0cbf\u0ca8\u0ccd", "name:ko": "\ubca0\ub97c\ub9b0", "name:koi": "\u0411\u0435\u0440\u043b\u0438\u043d", "name:ksh": "B\u00e4lliin", "name:ku": "Berl\u00een", "name:kv": "\u0411\u0435\u0440\u043b\u0438\u043d", "name:kw": "Berlin", "name:ky": "\u0411\u0435\u0440\u043b\u0438\u043d", "name:la": "Berolinum", "name:lb": "Berlin", "name:lez": "\u0411\u0435\u0440\u043b\u0438\u043d", "name:lg": "Berlin", "name:li": "Berlien", "name:lij": "Berlin", "name:lmo": "Berlin", "name:ln": "Berlin", "name:lt": "Berlynas", "name:ltg": "Berlins", "name:lv": "Berl\u012bne", "name:lzh": "\u67cf\u6797", "name:mg": "Berlin", "name:mhr": "\u0411\u0435\u0440\u043b\u0438\u043d", "name:mi": "Pear\u012bni", "name:mk": "\u0411\u0435\u0440\u043b\u0438\u043d", "name:ml": "\u0d2c\u0d46\u0d30\u0d4d\u200d\u0d32\u0d3f\u0d28\u0d4d", "name:mn": "\u0411\u0435\u0440\u043b\u0438\u043d", "name:mr": "\u092c\u0930\u094d\u0932\u093f\u0928", "name:mrj": "\u0411\u0435\u0440\u043b\u0438\u043d", "name:ms": "Berlin", "name:mt": "Berlin", "name:my": "\u1018\u102c\u101c\u1004\u103a\u1019\u103c\u102d\u102f\u1037", "name:myv": "\u0411\u0435\u0440\u043b\u0438\u043d \u043e\u0448", "name:mzn": "\u0628\u0631\u0644\u06cc\u0646", "name:na": "Berlin", "name:nah": "Berlin", "name:nan": "Berlin", "name:nap": "Berlino", "name:nds": "Berlin", "name:nds-nl": "Berlien", "name:nl": "Berlijn", "name:nn": "Berlin", "name:no": "Berlin", "name:nov": "Berlin", "name:nrm": "B\u00e8rl\u00een", "name:oc": "Berlin", "name:os": "\u0411\u0435\u0440\u043b\u0438\u043d", "name:pam": "Berlin", "name:pdc": "Berlin, Deitschland", "name:pfl": "Balin", "name:pl": "Berlin", "name:pms": "Berlin", "name:pnb": "\u0628\u0631\u0644\u0646", "name:pnt": "\u0392\u03b5\u03c1\u03bf\u03bb\u03af\u03bd\u03bf\u03bd", "name:prefix": "Land und Kreisfreie Stadt", "name:ps": "\u0628\u0631\u0644\u064a\u0646", "name:pt": "Berlim", "name:qu": "Berlin", "name:rm": "Berlin", "name:rmy": "Berlin", "name:ro": "Berlin", "name:roa-rup": "Berlin", "name:roa-tara": "Berline", "name:ru": "\u0411\u0435\u0440\u043b\u0438\u043d", "name:rue": "\u0411\u0435\u0440\u043b\u0456\u043d", "name:sah": "\u0411\u0435\u0440\u043b\u0438\u043d", "name:sc": "Berlinu", "name:scn": "Birlinu", "name:sco": "Berlin", "name:se": "Berlin", "name:sh": "Berlin", "name:short": "BE", "name:si": "\u0db6\u0dbb\u0dca\u0dbd\u0dd2\u0db1\u0dba", "name:sk": "Berl\u00edn", "name:sl": "Berlin", "name:so": "Berlin", "name:sq": "Berlini", "name:sr": "\u0411\u0435\u0440\u043b\u0438\u043d", "name:stq": "Berlin", "name:su": "Berliini", "name:sv": "Berlin", "name:sw": "Berlin", "name:szl": "Berlin", "name:ta": "\u0baa\u0bc6\u0bb0\u0bcd\u0bb2\u0bbf\u0ba9\u0bcd", "name:te": "\u0c2c\u0c46\u0c30\u0c4d\u0c32\u0c3f\u0c28\u0c4d", "name:tet": "Berl\u00edn", "name:tg": "\u0411\u0435\u0440\u043b\u0438\u043d", "name:th": "\u0e40\u0e1a\u0e2d\u0e23\u0e4c\u0e25\u0e34\u0e19", "name:tl": "Berlin", "name:tpi": "Berlin", "name:tr": "Berlin", "name:tt": "\u0411\u0435\u0440\u043b\u0438\u043d", "name:ty": "Berlin", "name:tzl": "Berlin", "name:udm": "\u0411\u0435\u0440\u043b\u0438\u043d", "name:ug": "B\u00e9rlin", "name:uk": "\u0411\u0435\u0440\u043b\u0456\u043d", "name:ur": "\u0628\u0631\u0644\u0646", "name:uz": "Berlin", "name:vec": "Berlin", "name:vi": "B\u00e9c-lin", "name:vls": "Berlyn", "name:wo": "Berlin", "name:xmf": "\u10d1\u10d4\u10e0\u10da\u10d8\u10dc\u10d8", "name:yi": "\u05d1\u05e2\u05e8\u05dc\u05d9\u05df", "name:yo": "Berlin", "name:yue": "\u67cf\u6797", "name:zea": "Berlijn", "name:zh": "\u67cf\u6797", "name:zu": "Berlin", "official_status": "Land", "official_status:de": "Land", "official_status:en": "State", "official_status:ru": "\u0437\u0435\u043c\u043b\u044f", "old_name:vi": "B\u00e1 Linh", "openGeoDB:community_identification_number": "11000000", "openGeoDB:license_plate_code": "B", "openGeoDB:loc_id": "14356", "openGeoDB:postal_codes": "10178,10115,10117,10119,10179,10243,10245,10247,10249,10315,10317,10318,10319,10365,10367,10369,10405,10407,10409,10435,10437,10439,10551,10553,10555,10557,10559,10585,10587,10589,10623,10625,10627,10629,10707,10709,10711,10713,10715,10717,10719,10777,10", "openGeoDB:telephone_area_code": "030", "place": "city", "population": "3600000", "ref:LOCODE": "DEBER", "website": "https://www.berlin.de/", "wikidata": "Q64", "wikipedia": "de:Berlin"}}, {"type": "node", "id": 240110547, "lat": 51.3582945, "lon": 7.473296, "tags": {"alt_name:ar": "\u0647\u0627\u062c\u0646", "ele": "106", "is_in": "Hagen,Regierungsbezirk Arnsberg,Nordrhein-Westfalen,Bundesrepublik Deutschland,Europe", "is_in:country_code": "DE", "is_in:iso_3166_2": "DE-NW", "name": "Hagen", "name:ar": "\u0647\u0627\u063a\u0646", "name:azb": "\u0647\u0627\u0642\u0646", "name:de": "Hagen", "name:el": "\u03a7\u03ac\u03b3\u03ba\u03b5\u03bd", "name:fa": "\u0647\u0627\u06af\u0646", "name:ja": "\u30cf\u30fc\u30b2\u30f3", "name:la": "Haga", "name:nds": "Hagen", "name:pnb": "\u06c1\u0627\u06af\u0646", "name:prefix": "Stadt der Fernuniversit\u00e4t", "name:ru": "\u0425\u0430\u0433\u0435\u043d", "name:sr": "\u0425\u0430\u0433\u0435\u043d", "name:ur": "\u062d\u0627\u06af\u0646", "openGeoDB:community_identification_number": "05914000", "openGeoDB:license_plate_code": "HA", "openGeoDB:loc_id": "17755", "openGeoDB:postal_codes": "58095,58089,58091,58093,58097,58099,58119,58135", "openGeoDB:telephone_area_code": "02331", "place": "city", "population": "186000", "ref:LOCODE": "DEHAG", "website": "https://www.hagen.de", "wikidata": "Q2871", "wikipedia": "de:Hagen"}}, {"type": "node", "id": 240114473, "lat": 51.7177044, "lon": 8.752653, "tags": {"ele": "110", "is_in": "Kreis Paderborn,Regierungsbezirk Detmold,Nordrhein-Westfalen,Bundesrepublik Deutschland,Europe", "is_in:country_code": "DE", "is_in:iso_3166_2": "DE-NW", "name": "Paderborn", "name:ar": "\u0628\u0627\u062f\u0631\u0628\u0648\u0631\u0646", "name:de": "Paderborn", "name:en": "Paderborn", "name:es": "Paderborn", "name:fa": "\u067e\u0627\u062f\u0631\u0628\u0648\u0631\u0646", "name:fr": "Paderborn", "name:it": "Paderborn", "name:ja": "\u30d1\u30fc\u30c0\u30fc\u30dc\u30eb\u30f3", "name:la": "Paderbronna", "name:ru": "\u041f\u0430\u0434\u0435\u0440\u0431\u043e\u0440\u043d", "name:sr": "\u041f\u0430\u0434\u0435\u0440\u0431\u043e\u0440\u043d", "name:ur": "\u067e\u0627\u062f\u0631\u0628\u0648\u0631\u0646", "openGeoDB:community_identification_number": "05774032", "openGeoDB:license_plate_code": "PB", "openGeoDB:loc_id": "22287", "openGeoDB:postal_codes": "33098,33100,33102,33104,33106", "openGeoDB:telephone_area_code": "05251", "place": "city", "population": "143659", "ref:LOCODE": "DEPAD", "website": "https://www.paderborn.de/", "wikidata": "Q2971", "wikipedia": "de:Paderborn"}}, {"type": "node", "id": 240116263, "lat": 50.0012314, "lon": 8.2762513, "tags": {"capital": "4", "de:amtlicher_gemeindeschluessel": "07315000", "is_in:country": "Germany", "name": "Mainz", "name:ar": "\u0645\u0627\u064a\u0646\u062a\u0633", "name:ca": "Mag\u00fancia", "name:cs": "Mohu\u010d", "name:de": "Mainz", "name:en": "Mainz", "name:es": "Maguncia", "name:fr": "Mayence", "name:he": "\u05de\u05d2\u05e0\u05e6\u05d0", "name:hsb": "Mohu\u010d", "name:it": "Magonza", "name:ja": "\u30de\u30a4\u30f3\u30c4", "name:la": "Mogontiacum", "name:lt": "Maincas", "name:pfl": "Meenz", "name:pl": "Moguncja", "name:ru": "\u041c\u0430\u0439\u043d\u0446", "name:sk": "Mohu\u010d", "name:sr": "\u041c\u0430\u0458\u043d\u0446", "name:uk": "\u041c\u0430\u0439\u043d\u0446", "name:zh": "\u7f8e\u56e0\u8328", "place": "city", "population": "209779", "ref:LOCODE": "DEMAI", "website": "https://www.mainz.de/", "wikidata": "Q1720", "wikipedia": "de:Mainz"}}, {"type": "node", "id": 240120582, "lat": 49.0068705, "lon": 8.4034195, "tags": {"capital": "5", "de:amtlicher_gemeindeschluessel": "08212000", "ele": "114", "is_in:country_code": "DE", "is_in:iso_3166_2": "DE-BW", "name": "Karlsruhe", "name:als": "Karlsrueh", "name:ar": "\u0643\u0627\u0631\u0644\u0633\u0631\u0648\u0647", "name:az": "Karlsruye", "name:bg": "\u041a\u0430\u0440\u043b\u0441\u0440\u0443\u0435", "name:cv": "\u041a\u0430\u0440\u043b\u0441\u0440\u0443\u044d", "name:el": "\u039a\u03b1\u03c1\u03bb\u03c3\u03c1\u03bf\u03cd\u03b7", "name:fa": "\u06a9\u0627\u0631\u0644\u0633\u0631\u0648\u0647\u0647", "name:he": "\u05e7\u05d0\u05e8\u05dc\u05e1\u05e8\u05d5\u05d4\u05d4", "name:ja": "\u30ab\u30fc\u30eb\u30b9\u30eb\u30fc\u30a8", "name:ka": "\u10d9\u10d0\u10e0\u10da\u10e1\u10e0\u10e3\u10d4", "name:ko": "\uce74\ub97c\uc2a4\ub8e8\uc5d0", "name:la": "Carolsruha", "name:lv": "Karlsr\u016be", "name:mk": "\u041a\u0430\u0440\u043b\u0441\u0440\u0443\u0435", "name:pfl": "Kallsruh", "name:ru": "\u041a\u0430\u0440\u043b\u0441\u0440\u0443\u044d", "name:sr": "\u041a\u0430\u0440\u043b\u0441\u0440\u0443\u0435", "name:uk": "\u041a\u0430\u0440\u043b\u0441\u0440\u0443\u0435", "name:zh": "\u5361\u5c14\u65af\u9c81\u5384", "place": "city", "population": "283959", "ref:LOCODE": "DEKAE", "wikidata": "Q1040"}}, {"type": "node", "id": 240120926, "lat": 49.0195333, "lon": 12.0974869, "tags": {"alt_name:en": "Ratisbon", "alt_name:la": "Ratisbona", "de:amtlicher_gemeindeschluessel": "09362", "is_in": "Oberpfalz,Bayern,Bundesrepublik Deutschland,Europe", "is_in:country_code": "DE", "is_in:iso_3166_2": "DE-BY", "name": "Regensburg", "name:ar": "\u0631\u064a\u063a\u0646\u0633\u0628\u0648\u0631\u063a", "name:bar": "Rengschburg", "name:ca": "Ratisbona", "name:cs": "\u0158ezno", "name:de": "Regensburg", "name:el": "\u03a1\u03b1\u03c4\u03b9\u03c3\u03b2\u03cc\u03bd\u03b7", "name:es": "Ratisbona", "name:fr": "Ratisbonne", "name:hsb": "R\u011bzno", "name:it": "Ratisbona", "name:la": "Castra Regina", "name:lt": "R\u0117gensburgas", "name:pl": "Ratyzbona", "name:prefix": "city", "name:pt": "Ratisbona", "name:ru": "\u0420\u0435\u0433\u0435\u043d\u0441\u0431\u0443\u0440\u0433", "name:sr": "\u0420\u0435\u0433\u0435\u043d\u0437\u0431\u0443\u0440\u0433", "name:uk": "\u0420\u0435\u0433\u0435\u043d\u0441\u0431\u0443\u0440\u0433", "name:zh": "\u96f7\u6839\u65af\u5821", "place": "city", "population": "145000", "ref:LOCODE": "DEREG", "short_name": "Rgbg", "wikidata": "Q2978", "wikipedia": "de:Regensburg"}}, {"type": "node", "id": 240125892, "lat": 49.4704113, "lon": 8.4381568, "tags": {"alt_name": "Ludwigshafen", "de:amtlicher_gemeindeschluessel": "07314000", "is_in:country_code": "DE", "is_in:iso_3166_2": "DE-RP", "name": "Ludwigshafen am Rhein", "name:de": "Ludwigshafen am Rhein", "name:la": "Ludovici Portus Rhenanus", "name:pfl": "Ludwichshafe", "name:ru": "\u041b\u044e\u0434\u0432\u0438\u0433\u0441\u0445\u0430\u0444\u0435\u043d-\u043d\u0430-\u0420\u0435\u0439\u043d\u0435", "name:sr": "\u041b\u0443\u0434\u0432\u0438\u0433\u0441\u0445\u0430\u0444\u0435\u043d \u043d\u0430 \u0420\u0430\u0458\u043d\u0438", "place": "city", "population": "163340", "ref:LOCODE": "DELUH", "wikidata": "Q2910"}}, {"type": "node", "id": 240126753, "lat": 51.2254018, "lon": 6.7763137, "tags": {"capital": "4", "ele": "38", "int_name": "Dusseldorf", "loc_name": "D'Dorf", "name": "D\u00fcsseldorf", "name:ar": "\u062f\u0648\u0633\u0644\u062f\u0648\u0631\u0641", "name:be": "\u0414\u0437\u044e\u0441\u0435\u043b\u044c\u0434\u043e\u0440\u0444", "name:de": "D\u00fcsseldorf", "name:el": "\u0394\u03c5\u03c3\u03c3\u03b5\u03bb\u03b4\u03cc\u03c1\u03c6\u03b7", "name:en": "Dusseldorf", "name:eo": "Duseldorfo", "name:fr": "D\u00fcsseldorf", "name:ja": "\u30c7\u30e5\u30c3\u30bb\u30eb\u30c9\u30eb\u30d5", "name:la": "Dusseldorpium", "name:lt": "Diuseldorfas", "name:mk": "\u0414\u0438\u0441\u0435\u043b\u0434\u043e\u0440\u0444", "name:ru": "\u0414\u044e\u0441\u0441\u0435\u043b\u044c\u0434\u043e\u0440\u0444", "name:sr": "\u0414\u0438\u0441\u0435\u043b\u0434\u043e\u0440\u0444", "name:uk": "\u0414\u044e\u0441\u0441\u0435\u043b\u044c\u0434\u043e\u0440\u0444", "name:zh": "\u675c\u585e\u5c14\u591a\u592b\u4f1a\u5c55\u4e2d\u5fc3", "name:zh-TW": "\u675c\u585e\u9053\u592b", "openGeoDB:community_identification_number": "05111000", "openGeoDB:license_plate_code": "D", "openGeoDB:loc_id": "15879", "openGeoDB:postal_codes": "40213,40210,40211,40212,40215,40217,40219,40221,40223,40225,40227,40229,40231,40233,40235,40237,40239,40468,40470,40472,40474,40476,40477,40479,40489,40545,40547,40549,40589,40591,40593,40595,40597,40599,40625,40627,40629", "openGeoDB:telephone_area_code": "0211", "place": "city", "population": "618128", "ref:LOCODE": "DEDUS", "website": "https://www.duesseldorf.de", "wikidata": "Q1718", "wikipedia": "de:D\u00fcsseldorf"}}, {"type": "node", "id": 273510436, "lat": 51.9625101, "lon": 7.6251879, "tags": {"name": "M\u00fcnster", "name:ar": "\u0645\u0648\u0646\u0633\u062a\u0631", "name:ba": "\u041c\u044e\u043d\u0441\u0442\u0435\u0440", "name:be": "\u041c\u044e\u043d\u0441\u0442\u044d\u0440", "name:bg": "\u041c\u044e\u043d\u0441\u0442\u0435\u0440", "name:cv": "\u041c\u044e\u043d\u0441\u0442\u0435\u0440", "name:de": "M\u00fcnster", "name:el": "\u039c\u03cd\u03bd\u03c3\u03c4\u03b5\u03c1", "name:fa": "\u0645\u0648\u0646\u0633\u062a\u0631", "name:fy": "Munster", "name:he": "\u05de\u05d9\u05e0\u05e1\u05d8\u05e8", "name:ja": "\u30df\u30e5\u30f3\u30b9\u30bf\u30fc", "name:ka": "\u10db\u10d8\u10e3\u10dc\u10e1\u10e2\u10d4\u10e0\u10d8", "name:kk": "\u041c\u044e\u043d\u0441\u0442\u0435\u0440", "name:ko": "\ubb8c\uc2a4\ud130", "name:la": "Monasterium", "name:lt": "Miunsteris", "name:lv": "Minstere", "name:mk": "\u041c\u0438\u043d\u0441\u0442\u0435\u0440", "name:mn": "\u041c\u044e\u043d\u0441\u0442\u0435\u0440", "name:nds": "M\u00f6nster", "name:nl": "Munster", "name:ru": "\u041c\u044e\u043d\u0441\u0442\u0435\u0440", "name:sr": "\u041c\u0438\u043d\u0441\u0442\u0435\u0440", "name:stq": "Munster", "name:tzl": "Muvaina", "name:uk": "\u041c\u044e\u043d\u0441\u0442\u0435\u0440", "name:zh": "\u660e\u65af\u7279", "note": "Wohnberechtigte Bev\u00f6lkerung am 31. Dezember 2019.", "old_name": "Mimigernaford", "place": "city", "population": "312169", "ref:LOCODE": "DEMSR", "wikidata": "Q2742"}}, {"type": "node", "id": 277023297, "lat": 53.1389753, "lon": 8.2146017, "tags": {"alt_name": "Oldenburg (Oldenburg)", "ele": "4", "is_in:iso_3166_2": "DE-NI", "loc_name": "Oldenburg", "name": "Oldenburg", "name:ar": "\u0623\u0648\u0644\u062f\u0646\u0628\u0648\u0631\u063a", "name:de": "Oldenburg", "name:fr": "Oldenbourg", "name:fy": "Aldenboarch", "name:is": "Aldinborg", "name:ja": "\u30aa\u30eb\u30c7\u30f3\u30d6\u30eb\u30af", "name:la": "Oldenburgum", "name:nds": "Ollnborg", "name:pt": "Oldemburgo", "name:ru": "\u041e\u043b\u044c\u0434\u0435\u043d\u0431\u0443\u0440\u0433", "name:sr": "\u041e\u043b\u0434\u0435\u043d\u0431\u0443\u0440\u0433", "name:zh": "\u5965\u5c14\u767b\u5821", "official_name": "Oldenburg (Oldb)", "openGeoDB:community_identification_number": "03403000", "openGeoDB:license_plate_code": "OL", "openGeoDB:loc_id": "22143", "openGeoDB:postal_codes": "26122,26121,26123,26125,26127,26129,26131,26133,26135", "openGeoDB:telephone_area_code": "0441", "place": "city", "population": "163830", "ref:LOCODE": "DEOLO", "website": "https://www.oldenburg.de/", "wikidata": "Q2936", "wikipedia": "de:Oldenburg (Oldenburg)"}}, {"type": "node", "id": 304997397, "lat": 51.9063997, "lon": 8.3782078, "tags": {"ele": "75", "is_in": "G\u00fctersloh,Detmold,Nordrhein-Westfalen,Bundesrepublik Deutschland,Europe", "name": "G\u00fctersloh", "name:de": "G\u00fctersloh", "name:nds": "G\u00fctsel", "name:ru": "\u0413\u044e\u0442\u0435\u0440\u0441\u043b\u043e", "openGeoDB:loc_id": "17676", "place": "city", "population": "100194", "wikidata": "Q3771", "wikipedia": "de:G\u00fctersloh"}}, {"type": "node", "id": 660314734, "lat": 53.5522264, "lon": 8.5865509, "tags": {"ele": "2", "is_in:country_code": "DE", "name": "Bremerhaven", "name:ar": "\u0628\u0631\u064a\u0645\u0631\u0647\u0627\u0641\u0646", "name:be": "\u0411\u0440\u044d\u043c\u0435\u0440\u0433\u0430\u0444\u0435\u043d", "name:cs": "Br\u00e9msk\u00fd P\u0159\u00edstav", "name:de": "Bremerhaven", "name:fa": "\u0628\u0631\u0645\u0631\u0647\u0627\u0641\u0646", "name:ja": "\u30d6\u30ec\u30fc\u30de\u30fc\u30cf\u30fc\u30d5\u30a7\u30f3", "name:la": "Bremae Portus", "name:lt": "Br\u0117merhafenas", "name:lv": "Br\u0113merh\u0101fene", "name:nds": "Bremerhoben", "name:prefix": "Stadt", "name:ru": "\u0411\u0440\u0435\u043c\u0435\u0440\u0445\u0430\u0444\u0435\u043d", "name:sr": "\u0411\u0440\u0435\u043c\u0435\u0440\u0445\u0430\u0444\u0435\u043d", "name:stq": "Bremerhoawen", "name:ur": "\u0628\u0631\u06cc\u0645\u06cc\u0631\u062d\u0627\u0648\u06cc\u0646", "name:zh": "\u4e0d\u6765\u6885\u54c8\u82ac", "old_name": "Weserm\u00fcnde", "openGeoDB:community_identification_number": "04012000", "openGeoDB:license_plate_code": "HB", "openGeoDB:loc_id": "14938", "openGeoDB:postal_codes": "27576,27568,27570,27572,27574,27578,27580", "openGeoDB:telephone_area_code": "0471", "place": "city", "population": "117281", "ref:LOCODE": "DEBRV", "wikidata": "Q2706", "wikipedia": "de:Bremerhaven"}}, {"type": "node", "id": 1530957491, "lat": 49.234362, "lon": 6.996379, "tags": {"capital": "4", "ele": "230", "int_name": "Saarbruecken", "is_in:country_code": "DE", "is_in:district": "Regionalverband Saarbr\u00fccken", "is_in:iso_3166_2": "DE-SL", "loc_name": "Saabrigge", "name": "Saarbr\u00fccken", "name:ar": "\u0633\u0627\u0631\u0628\u0631\u0648\u0643\u0646", "name:fr": "Sarrebruck", "name:ja": "\u30b6\u30fc\u30eb\u30d6\u30ea\u30e5\u30c3\u30b1\u30f3", "name:ka": "\u10d6\u10d0\u10d0\u10e0\u10d1\u10e0\u10d8\u10e3\u10d9\u10d4\u10dc\u10d8", "name:la": "Saravipons", "name:lb": "Saarbr\u00e9cken", "name:lt": "Sarbriukenas", "name:ru": "\u0421\u0430\u0430\u0440\u0431\u0440\u044e\u043a\u043a\u0435\u043d", "name:sr": "\u0421\u0430\u0440\u0431\u0440\u0438\u043a\u0435\u043d", "openGeoDB:community_identification_number": "10041100", "openGeoDB:license_plate_code": "SB", "openGeoDB:loc_id": "23458", "openGeoDB:postal_codes": "66111,66113,66115,66117,66119,66121,66123,66125,66126,66127,66128,66129,66130,66131,66132,66133", "openGeoDB:telephone_area_code": "0681", "openGeoDB:type": "Landeshauptstadt", "place": "city", "population": "177201", "ref:LOCODE": "DESCN", "wikidata": "Q1724", "wikipedia": "de:Saarbr\u00fccken"}}, {"type": "node", "id": 1559853166, "lat": 48.3668041, "lon": 10.8986971, "tags": {"is_in:country_code": "DE", "is_in:iso_3166_2": "DE-BY", "name": "Augsburg", "name:als": "Augschburg", "name:ar": "\u0623\u0648\u063a\u0633\u0628\u0648\u0631\u063a", "name:bar": "Augschburg", "name:br": "Augsburg", "name:cs": "Aug\u0161purk", "name:de": "Augsburg", "name:en": "Augsburg", "name:es": "Augsburgo", "name:eu": "Augsburg", "name:fa": "\u0627\u0648\u06af\u0633\u0628\u0648\u0631\u06af", "name:fr": "Augsbourg", "name:hy": "\u0531\u0578\u0582\u0563\u057d\u0562\u0578\u0582\u0580\u0563", "name:it": "Augusta", "name:ja": "\u30a2\u30a6\u30af\u30b9\u30d6\u30eb\u30af", "name:ka": "\u10d0\u10e3\u10d2\u10e1\u10d1\u10e3\u10e0\u10d2\u10d8", "name:la": "Augusta Vindelicorum", "name:lv": "Augsburga", "name:ru": "\u0410\u0443\u0433\u0441\u0431\u0443\u0440\u0433", "name:sr": "\u0410\u0443\u0433\u0437\u0431\u0443\u0440\u0433", "name:th": "\u0e40\u0e2d\u0e32\u0e01\u0e4c\u0e2a\u0e1a\u0e39\u0e23\u0e4c\u0e01", "name:tr": "Augsburg", "name:uk": "\u0410\u0443\u0433\u0441\u0431\u0443\u0440\u0433", "name:zh": "\u5965\u683c\u65af\u5821", "place": "city", "population": "293415", "ref:LOCODE": "DEAGB", "website": "https://www.augsburg.de/", "wikidata": "Q2749", "wikipedia": "de:Augsburg"}}, {"type": "node", "id": 1569338041, "lat": 49.453872, "lon": 11.077298, "tags": {"alt_name:gl": "Nuremberga", "capital": "5", "ele": "309", "is_in": "Mittelfranken,Bayern,Bundesrepublik Deutschland,Europe", "is_in:country_code": "DE", "is_in:iso_3166_2": "DE-BY", "loc_name": "N\u00e4mberch", "name": "N\u00fcrnberg", "name:ar": "\u0646\u0648\u0631\u0646\u0628\u0631\u063a", "name:be": "\u041d\u044e\u0440\u043d\u0431\u0435\u0440\u0433", "name:ca": "Nuremberg", "name:cs": "Norimberk", "name:de": "N\u00fcrnberg", "name:dsb": "N\u00fcrnberg", "name:el": "\u039d\u03c5\u03c1\u03b5\u03bc\u03b2\u03ad\u03c1\u03b3\u03b7", "name:en": "Nuremberg", "name:es": "N\u00faremberg", "name:fa": "\u0646\u0648\u0631\u0646\u0628\u0631\u06af", "name:fr": "Nuremberg", "name:gl": "N\u00fcrnberg", "name:he": "\u05e0\u05d9\u05e8\u05e0\u05d1\u05e8\u05d2", "name:hr": "N\u00fcrnberg", "name:hsb": "N\u00fcrnberg", "name:hy": "\u0546\u0575\u0578\u0582\u0580\u0576\u0562\u0565\u0580\u0563", "name:it": "Norimberga", "name:ja": "\u30cb\u30e5\u30eb\u30f3\u30d9\u30eb\u30af", "name:ka": "\u10dc\u10d8\u10e3\u10e0\u10dc\u10d1\u10d4\u10e0\u10d2\u10d8", "name:la": "Norimberga", "name:lt": "Niurnbergas", "name:lv": "Nirnberga", "name:mk": "\u041d\u0438\u0440\u043d\u0431\u0435\u0440\u0433", "name:nds": "N\u00fcrnbarg", "name:nl": "Neurenberg", "name:pl": "Norymberga", "name:pt": "Nuremberga", "name:ru": "\u041d\u044e\u0440\u043d\u0431\u0435\u0440\u0433", "name:sk": "Norimberg", "name:sr": "\u041d\u0438\u0440\u043d\u0431\u0435\u0440\u0433", "name:th": "\u0e40\u0e19\u0e37\u0e2d\u0e23\u0e4c\u0e19\u0e41\u0e1a\u0e23\u0e4c\u0e01", "name:uk": "\u041d\u044e\u0440\u043d\u0431\u0435\u0440\u0433", "name:ur": "\u0646\u0648\u0631\u0646\u0628\u0631\u06af", "name:zh": "\u7ebd\u4f26\u5821", "place": "city", "population": "511628", "ref:LOCODE": "DENUE", "source:population": "N\u00fcrnberg in Zahlen 2016 (Mai 2016)", "website": "https://www.nuernberg.de/", "wikidata": "Q2090", "wikipedia": "de:N\u00fcrnberg"}}, {"type": "node", "id": 1575668118, "lat": 51.4272925, "lon": 6.8829192, "tags": {"alt_name:mk": "\u041c\u0438\u043b\u0445\u0430\u0458\u043c", "ele": "40", "name": "M\u00fclheim an der Ruhr", "name:ar": "\u0645\u0648\u0644\u0647\u0627\u064a\u0645 \u0639\u0644\u0649 \u0627\u0644\u0631\u0648\u0631", "name:de": "M\u00fclheim an der Ruhr", "name:mk": "\u041c\u0438\u043b\u0445\u0430\u0458\u043c \u043d\u0430 \u0420\u0443\u0440", "name:nds": "M\u00f6lm", "name:ru": "\u041c\u044e\u043b\u044c\u0445\u0430\u0439\u043c", "name:sr": "\u041c\u0438\u043b\u0445\u0430\u0458\u043c \u043d\u0430 \u0420\u0443\u0440\u0443", "name:uk": "\u041c\u044e\u043b\u044c\u0445\u0430\u0439\u043c \u0430\u043d \u0434\u0435\u0440 \u0420\u0443\u0440", "place": "city", "population": "167108", "ref:LOCODE": "DEMUH", "website": "https://www.muelheim-ruhr.de/", "wikidata": "Q2899", "wikipedia": "de:M\u00fclheim an der Ruhr"}}, {"type": "node", "id": 1583294719, "lat": 51.3154546, "lon": 9.4924096, "tags": {"alt_name:la": "Castellum Hassiae", "ele": "167", "is_in:country_code": "DE", "is_in:iso_3166_2": "DE-HE", "name": "Kassel", "name:ar": "\u0643\u0627\u0633\u0644", "name:bg": "\u041a\u0430\u0441\u0435\u043b", "name:de": "Kassel", "name:el": "\u039a\u03ac\u03c3\u03c3\u03b5\u03bb", "name:en": "Kassel", "name:eo": "Kaselo", "name:es": "Cassel", "name:fa": "\u06a9\u0627\u0633\u0644", "name:fr": "Cassel", "name:he": "\u05e7\u05d0\u05e1\u05dc", "name:ja": "\u30ab\u30c3\u30bb\u30eb", "name:kk": "\u041a\u0430\u0441\u0441\u0435\u043b\u044c", "name:ko": "\uce74\uc140", "name:la": "Cassala", "name:lt": "Kaselis", "name:lv": "Kasele", "name:mk": "\u041a\u0430\u0441\u0435\u043b", "name:pnb": "\u06a9\u06cc\u0633\u0644", "name:ru": "\u041a\u0430\u0441\u0441\u0435\u043b\u044c", "name:sq": "Kaseli", "name:sr": "\u041a\u0430\u0441\u0435\u043b", "name:th": "\u0e04\u0e31\u0e2a\u0e40\u0e0b\u0e34\u0e25", "name:uk": "\u041a\u0430\u0441\u0441\u0435\u043b\u044c", "name:zh": "\u5361\u585e\u5c14", "old_name": "Cassel", "place": "city", "population": "204021", "ref:LOCODE": "DEKAS", "source:old_name": "https://de.wikipedia.org/wiki/Kassel", "website": "https://www.kassel.de/", "wikidata": "Q2865"}}, {"type": "node", "id": 1602111978, "lat": 49.477263, "lon": 10.989616, "tags": {"ele": "294", "name": "F\u00fcrth", "name:ar": "\u0641\u0648\u0631\u062a", "name:de": "F\u00fcrth", "name:fa": "\u0641\u0648\u0631\u062a", "name:ru": "\u0424\u044e\u0440\u0442", "name:sr": "\u0424\u0438\u0440\u0442", "name:uk": "\u0424\u044e\u0440\u0442", "name:ur": "\u0641\u0648\u0631\u062a", "openGeoDB:community_identification_number": "09563", "openGeoDB:is_in_loc_id": "164", "openGeoDB:layer": "5", "openGeoDB:license_plate_code": "F\u00dc", "openGeoDB:loc_id": "612", "place": "city", "population": "125403", "ref:LOCODE": "DEFUE", "reg_name": "F\u00e4rdd", "website": "https://www.fuerth.de/", "wikidata": "Q3075", "wikipedia": "de:F\u00fcrth"}}, {"type": "node", "id": 1613672847, "lat": 51.4696137, "lon": 6.8514435, "tags": {"alt_name:nds": "Owerhuusen", "ele": "35", "name": "Oberhausen", "name:ar": "\u0623\u0648\u0628\u0631\u0647\u0648\u0632\u0646", "name:de": "Oberhausen", "name:ja": "\u30aa\u30fc\u30d0\u30fc\u30cf\u30a6\u30bc\u30f3", "name:nds": "Overhus", "name:ru": "\u041e\u0431\u0435\u0440\u0445\u0430\u0443\u0437\u0435\u043d", "name:sr": "\u041e\u0431\u0435\u0440\u0445\u0430\u0443\u0437\u0435\u043d", "openGeoDB:community_identification_number": "05119", "openGeoDB:license_plate_code": "OB", "openGeoDB:loc_id": "617", "place": "city", "population": "209292", "ref:LOCODE": "DEOBE", "wikidata": "Q2838"}}, {"type": "node", "id": 1628927045, "lat": 51.7567447, "lon": 14.3357307, "tags": {"alt_name:dsb": "Ch\u00f3\u0161obuz", "ele": "75", "name": "Cottbus - Ch\u00f3\u015bebuz", "name:ar": "\u0643\u062a\u0628\u0648\u0633", "name:cs": "Chot\u011bbuz", "name:de": "Cottbus", "name:dsb": "Ch\u00f3\u015bebuz", "name:fa": "\u06a9\u062a\u0628\u0648\u0633", "name:hsb": "Cho\u0107ebuz", "name:ja": "\u30b3\u30c8\u30d6\u30b9", "name:lt": "Kotbusas", "name:nl": "Cottbus", "name:pl": "Chociebu\u017c", "name:ru": "\u041a\u043e\u0442\u0431\u0443\u0441", "name:sr": "\u041a\u043e\u0442\u0431\u0443\u0441", "name:ur": "\u06a9\u062a\u0628\u0648\u0633", "place": "city", "population": "100945", "wikidata": "Q3214", "wikipedia": "de:Cottbus"}}, {"type": "node", "id": 1651888734, "lat": 52.3744779, "lon": 9.7385532, "tags": {"alt_name:gl": "Hannover", "capital": "4", "name": "Hannover", "name:ar": "\u0647\u0627\u0646\u0648\u0641\u0631", "name:be": "\u0413\u0430\u043d\u043e\u0432\u0435\u0440", "name:bg": "\u0425\u0430\u043d\u043e\u0432\u0435\u0440", "name:bn": "\u09b9\u09be\u09a8\u09cb\u09ab\u09be\u09b0", "name:ce": "\u0425\u0430\u043d\u043e\u0432\u0435\u0440", "name:ckb": "\u0647\u0627\u0646\u06c6\u06a4\u06d5\u0631", "name:de": "Hannover", "name:el": "\u0391\u03bd\u03bd\u03cc\u03b2\u03b5\u03c1\u03bf", "name:en": "Hanover", "name:eo": "Hanovro", "name:fa": "\u0647\u0627\u0646\u0648\u0641\u0631", "name:fr": "Hanovre", "name:gd": "H\u00e0nobhar", "name:gl": "Hann\u00f3ver", "name:he": "\u05d4\u05e0\u05d5\u05d1\u05e8", "name:hy": "\u0540\u0561\u0576\u0576\u0578\u057e\u0565\u0580", "name:ja": "\u30cf\u30ce\u30fc\u30d5\u30a1\u30fc", "name:ka": "\u10f0\u10d0\u10dc\u10dd\u10d5\u10d4\u10e0\u10d8", "name:kk": "\u0413\u0430\u043d\u043d\u043e\u0432\u0435\u0440", "name:ko": "\ud558\ub178\ubc84", "name:la": "Hannovera", "name:lt": "Hanoveris", "name:lv": "Hannovere", "name:mk": "\u0425\u0430\u043d\u043e\u0432\u0435\u0440", "name:mn": "\u0425\u0430\u043d\u043d\u043e\u0432\u0435\u0440", "name:mr": "\u0939\u093e\u0928\u094b\u092b\u0930", "name:ms": "Hanover", "name:nds": "Hannober", "name:nl": "Hannover", "name:os": "\u0413\u0430\u043d\u043d\u043e\u0432\u0435\u0440", "name:pl": "Hanower", "name:pt": "Han\u00f4ver", "name:ro": "Hanovra", "name:ru": "\u0413\u0430\u043d\u043d\u043e\u0432\u0435\u0440", "name:sq": "Hanoveri", "name:sr": "\u0425\u0430\u043d\u043e\u0432\u0435\u0440", "name:th": "\u0e2e\u0e31\u0e19\u0e42\u0e19\u0e40\u0e27\u0e2d\u0e23\u0e4c", "name:ug": "Hanof\u00e9r", "name:uk": "\u0413\u0430\u043d\u043d\u043e\u0432\u0435\u0440", "name:ur": "\u06c1\u0627\u0646\u0648\u0648\u0631", "name:xh": "IHanoveri", "name:yi": "\u05d4\u05d0\u05e0\u05d0\u05d5\u05d5\u05e2\u05e8", "name:yo": "Hanover", "name:zh": "\u6c49\u8bfa\u5a01", "place": "city", "population": "525875", "ref:LOCODE": "DEHAJ", "reg_name": "Hannover", "wikidata": "Q1715", "wikipedia": "de:Hannover"}}, {"type": "node", "id": 1651889631, "lat": 51.0324743, "lon": 6.9881194, "tags": {"ele": "60", "is_in": "Regierungsbezirk K\u00f6ln,Nordrhein-Westfalen,Bundesrepublik Deutschland,Europe", "is_in:country_code": "DE", "is_in:iso_3166_2": "DE-NW", "name": "Leverkusen", "name:ar": "\u0644\u064a\u0641\u0631\u0643\u0648\u0632\u0646", "name:be": "\u041b\u0435\u0432\u0435\u0440\u043a\u0443\u0437\u0435\u043d", "name:bg": "\u041b\u0435\u0432\u0435\u0440\u043a\u0443\u0437\u0435\u043d", "name:de": "Leverkusen", "name:el": "\u039b\u03b5\u03b2\u03b5\u03c1\u03ba\u03bf\u03cd\u03b6\u03b5\u03bd", "name:en": "Leverkusen", "name:es": "Leverkusen", "name:fa": "\u0644\u0648\u0631\u06a9\u0648\u0632\u0646", "name:fr": "Leverkusen", "name:he": "\u05dc\u05d1\u05e8\u05e7\u05d5\u05d6\u05df", "name:it": "Leverkusen", "name:ja": "\u30ec\u30fc\u30f4\u30a1\u30fc\u30af\u30fc\u30bc\u30f3", "name:ko": "\ub808\ubc84\ucfe0\uc820", "name:nl": "Leverkusen", "name:pl": "Leverkusen", "name:ru": "\u041b\u0435\u0432\u0435\u0440\u043a\u0443\u0437\u0435\u043d", "name:sr": "\u041b\u0435\u0432\u0435\u0440\u043a\u0443\u0437\u0435\u043d", "name:tr": "Leverkusen", "name:uk": "\u041b\u0435\u0432\u0435\u0440\u043a\u0443\u0437\u0435\u043d", "name:zh": "\u52d2\u6c83\u5e93\u68ee", "note": "Position des place-nodes schwierig, da kein echtes Zentrum vorhanden", "openGeoDB:community_identification_number": "05316", "openGeoDB:license_plate_code": "LEV", "openGeoDB:loc_id": "421", "openGeoDB:postal_codes": "51373,51371,51375,51377,51379,51381", "openGeoDB:telephone_area_code": "0214", "place": "city", "population": "160819", "ref:LOCODE": "DELEV", "website": "https://www.leverkusen.de/", "wikidata": "Q2938", "wikipedia": "de:Leverkusen"}}, {"type": "node", "id": 1667005776, "lat": 51.4825041, "lon": 11.9705452, "tags": {"alt_name": "Halle", "common_name": "Halle", "de:amtlicher_gemeindeschluessel": "15002000", "ele": "88", "is_in:country_code": "DE", "is_in:iso_3166_2": "DE-ST", "license_plate_code": "HAL", "name": "Halle (Saale)", "name:ar": "\u0647\u0644\u0647", "name:eo": "Halle \u0109e Saale", "name:fa": "\u0647\u0627\u0644\u0647", "name:hsb": "Hala nad Solawu", "name:la": "Salinae Saxonicae", "name:nds": "Halle (Saale)", "name:ru": "\u0413\u0430\u043b\u043b\u0435", "name:sr": "\u0425\u0430\u043b\u0435", "name:ur": "\u062d\u0627\u0644\u06cc", "place": "city", "population": "231565", "ref:LOCODE": "DEHAL", "website": "http://www.halle.de/", "wikidata": "Q2814", "wikipedia": "de:Halle (Saale)"}}, {"type": "node", "id": 1674026139, "lat": 48.7784485, "lon": 9.1800132, "tags": {"alt_name:cs": "\u0160tukart;\u0160tokart", "capital": "4", "de:amtlicher_gemeindeschluessel": "08111", "ele": "247", "is_in:country": "Germany", "is_in:country_code": "DE", "is_in:iso_3166_2": "DE-BW", "name": "Stuttgart", "name:ar": "\u0634\u062a\u0648\u062a\u063a\u0627\u0631\u062a", "name:cs": "\u0160t\u00edhrad", "name:de": "Stuttgart", "name:el": "\u03a3\u03c4\u03bf\u03c5\u03c4\u03b3\u03ba\u03ac\u03c1\u03b4\u03b7", "name:en": "Stuttgart", "name:eo": "\u015ctutgarto", "name:fr": "Stuttgart", "name:gsw": "Stuegert", "name:it": "Stoccarda", "name:ja": "\u30b7\u30e5\u30c8\u30a5\u30c3\u30c8\u30ac\u30eb\u30c8", "name:ko": "\uc288\ud22c\ud2b8\uac00\ub974\ud2b8", "name:la": "Stutgardia", "name:lt": "\u0160tutgartas", "name:lv": "\u0160tutgarte", "name:mk": "\u0428\u0442\u0443\u0442\u0433\u0430\u0440\u0442", "name:pfl": "Schduggad", "name:pt": "Estugarda", "name:ru": "\u0428\u0442\u0443\u0442\u0433\u0430\u0440\u0442", "name:sr": "\u0428\u0442\u0443\u0442\u0433\u0430\u0440\u0442", "name:swg": "Schtugert", "name:th": "\u0e0a\u0e15\u0e38\u0e17\u0e17\u0e4c\u0e01\u0e32\u0e23\u0e4c\u0e17", "name:uk": "\u0428\u0442\u0443\u0442\u0433\u0430\u0440\u0442", "name:zh": "\u65af\u56fe\u52a0\u7279", "old_name:fr": "Stutgard", "place": "city", "population": "613392", "ref:LOCODE": "DESTR", "website": "https://www.stuttgart.de/", "wikidata": "Q1022", "wikipedia": "de:Stuttgart"}}, {"type": "node", "id": 1674619101, "lat": 51.5328328, "lon": 9.9351811, "tags": {"is_in:iso_3166_2": "DE-NI", "name": "G\u00f6ttingen", "name:ar": "\u063a\u0648\u062a\u064a\u0646\u063a\u0646", "name:de": "G\u00f6ttingen", "name:el": "\u0393\u03bf\u03c4\u03c4\u03af\u03b3\u03b3\u03b7", "name:eo": "Gotingeno", "name:es": "Gotinga", "name:fa": "\u06af\u0648\u062a\u06cc\u0646\u06af\u0646", "name:fr": "G\u0153ttingue", "name:it": "Gottinga", "name:ja": "\u30b2\u30c3\u30c6\u30a3\u30f3\u30b2\u30f3", "name:la": "Gottinga", "name:lt": "G\u0117tingenas", "name:nds": "Ch\u00f6ttingen", "name:pl": "Getynga", "name:ru": "\u0413\u0451\u0442\u0442\u0438\u043d\u0433\u0435\u043d", "name:sr": "\u0413\u0435\u0442\u0438\u043d\u0433\u0435\u043d", "openGeoDB:community_identification_number": "03152012", "openGeoDB:is_in_loc_id": "573", "openGeoDB:layer": "6", "openGeoDB:license_plate_code": "G\u00d6", "openGeoDB:loc_id": "17176", "openGeoDB:name": "G\u00f6ttingen, Niedersachsen", "openGeoDB:postal_codes": "37083,37073,37075,37077,37079,37081,37085", "openGeoDB:telephone_area_code": "0551", "place": "city", "population": "134632", "population:date": "2019-12-31", "ref:LOCODE": "DEGOE", "start_date": "953", "wikidata": "Q3033", "wikipedia": "de:G\u00f6ttingen"}}, {"type": "node", "id": 1684321651, "lat": 54.0924445, "lon": 12.1286127, "tags": {"admin_level": "6", "alt_name:la": "Rostochiensis;Rhodopolis", "is_in": "Mecklenburg-Vorpommern,Bundesrepublik Deutschland,Europe", "is_in:country_code": "DE", "is_in:iso_3166_2": "DE-MV", "name": "Rostock", "name:ar": "\u0631\u0648\u0633\u062a\u0648\u0643", "name:cs": "Roztoky", "name:de": "Rostock", "name:eo": "Rostoko", "name:fa": "\u0631\u0648\u0633\u062a\u0648\u06a9", "name:hsb": "Roztok", "name:ja": "\u30ed\u30b9\u30c8\u30c3\u30af", "name:la": "Rostochium", "name:lt": "Rostokas", "name:lv": "Rostoka", "name:nds": "Rostock", "name:ru": "\u0420\u043e\u0441\u0442\u043e\u043a", "name:sr": "\u0420\u043e\u0441\u0442\u043e\u043a", "name:ur": "\u0631\u0648\u0633\u062a\u0648\u06a9", "name:zh": "\u7f57\u65af\u6258\u514b", "nickname": "Hansestadt", "nickname:af": "Hansestad", "nickname:an": "Ciudat Hanseatica", "nickname:ar": "\u0645\u062f\u064a\u0646\u0629 \u0627\u0644\u0647\u0627\u0646\u0632\u064a\u0629", "nickname:ast": "Ciud\u00e1 Hanse\u00e1tica", "nickname:az": "Hanzey \u015f\u0259h\u0259ri", "nickname:bar": "Hansestod", "nickname:be": "\u0413\u0430\u043d\u0437\u0435\u0439\u0441\u043a\u0456 \u0433\u043e\u0440\u0430\u0434", "nickname:be-tarask": "\u0413\u0430\u043d\u0437\u0435\u0439\u0441\u043a\u0456 \u0433\u043e\u0440\u0430\u0434", "nickname:ca": "ciutat hanse\u00e0tica", "nickname:cs": "hanzovn\u00ed m\u011bsto", "nickname:de": "Hansestadt", "nickname:en": "Hanseatic city", "nickname:eo": "Hanso-urbo", "nickname:es": "ciudad hanse\u00e1tica", "nickname:et": "hansalinn", "nickname:eu": "Hansar Hiria", "nickname:fr": "ville hans\u00e9atique", "nickname:frr": "Hansest\u00e4\u00e4d", "nickname:fy": "H\u00e2nzest\u00ead", "nickname:gl": "Cidade Hanse\u00e1tica", "nickname:hsb": "hansowe m\u011bsto", "nickname:hu": "Hanza-v\u00e1ros", "nickname:id": "Kota Hanseatik", "nickname:it": "citt\u00e0 anseatica", "nickname:ja": "\u30cf\u30f3\u30b6\u90fd\u5e02", "nickname:jv": "Kota Hanseatik", "nickname:la": "urbs Hanseatica", "nickname:lb": "Hansestad", "nickname:lt": "Hanzos s\u0105jungos miestas", "nickname:lv": "hanzas pils\u0113ta", "nickname:mk": "\u0425\u0430\u043d\u0437\u0438\u043d \u0433\u0440\u0430\u0434", "nickname:nds": "Hansestadt", "nickname:nds-nl": "Hanzestad", "nickname:nl": "Hanzestad", "nickname:no": "Hansabyen", "nickname:pt": "Cidade Hanse\u00e1tica", "nickname:ro": "Ora\u0219 al Hansei", "nickname:ru": "\u0413\u0430\u043d\u0437\u0435\u0301\u0439\u0441\u043a\u0438\u0439 \u0433\u043e\u0301\u0440\u043e\u0434", "nickname:sc": "Tzitade Anse\u00e0tica", "nickname:sco": "Hanseatic ceety", "nickname:sk": "hanzov\u00e9 mesto", "nickname:sl": "hanzeatsko mesto", "nickname:th": "\u0e19\u0e04\u0e23\u0e2e\u0e31\u0e19\u0e40\u0e0b\u0e2d\u0e41\u0e2b\u0e48\u0e07", "nickname:vec": "sit\u00e0 anseatica", "nickname:vi": "th\u00e0nh ph\u1ed1 Hanse", "nickname:yue": "\u6f22\u838e\u57ce\u5e02", "nickname:zh": "\u6c49\u8428\u540c\u76df\u57ce\u5e02", "official_name": "Hanse- und Universit\u00e4tsstadt Rostock", "official_name:af": "Hansestad Rostock", "official_name:ar": "\u0645\u062f\u064a\u0646\u0629 \u0631\u0648\u0633\u062a\u0648\u0643 \u0627\u0644\u0647\u0627\u0646\u0632\u064a\u0629", "official_name:de": "Hanse- und Universit\u00e4tsstadt Rostock", "official_name:lv": "Hanzas pils\u0113ta Rostoka", "official_name:nds": "Hansestadt Rostock", "official_name:ru": "\u0413\u0430\u043d\u0437\u0435\u0301\u0439\u0441\u043a\u0438\u0439 \u0433\u043e\u0301\u0440\u043e\u0434 \u0420\u043e\u0301\u0441\u0442\u043e\u043a", "official_name:sl": "Hanzeatsko mesto Rostock", "official_name:vi": "Th\u00e0nh ph\u1ed1 Hanse Rostock", "official_name:zh": "\u6c49\u8428\u57ce\u5e02\u7f57\u65af\u6258\u514b", "openGeoDB:community_identification_number": "13003000", "openGeoDB:license_plate_code": "HRO", "openGeoDB:loc_id": "23328", "openGeoDB:postal_codes": "18055,18057,18059,18069,18106,18107,18109,18119,18146,18147,18182", "openGeoDB:telephone_area_code": "0381", "openGeoDB:type": "Hansestadt", "place": "city", "population": "207830", "ref:LOCODE": "DERSK", "survey:date:population": "2017-06-30", "website": "https://www.rostock.de/", "wikidata": "Q2861", "wikipedia": "en:Rostock"}}, {"type": "node", "id": 1695218178, "lat": 52.4009309, "lon": 13.0591397, "tags": {"alt_name:pl": "Podst\u0105pin", "capital": "4", "ele": "32", "name": "Potsdam", "name:ar": "\u0628\u0648\u062a\u0633\u062f\u0627\u0645", "name:be": "\u041f\u0430\u0442\u0441\u0434\u0430\u0301\u043c", "name:bg": "\u041f\u043e\u0442\u0441\u0434\u0430\u043c", "name:ce": "\u041f\u043e\u0442\u0441\u0434\u0430\u043c", "name:ckb": "\u067e\u06c6\u062a\u0633\u062f\u0627\u0645", "name:cs": "Postupim", "name:de": "Potsdam", "name:dsb": "Podstupim", "name:el": "\u03a0\u03cc\u03c4\u03c3\u03b4\u03b1\u03bc", "name:eo": "Pocdamo", "name:fa": "\u067e\u0648\u062a\u0633\u062f\u0627\u0645", "name:he": "\u05e4\u05d5\u05d8\u05e1\u05d3\u05d0\u05dd", "name:hi": "\u092a\u0949\u091f\u094d\u0938\u0921\u0948\u092e", "name:hsb": "Podstupim", "name:ja": "\u30dd\u30c4\u30c0\u30e0", "name:ka": "\u10de\u10dd\u10e2\u10e1\u10d3\u10d0\u10db\u10d8", "name:kk": "\u041f\u043e\u0442\u0441\u0434\u0430\u043c", "name:ko": "\ud3ec\uce20\ub2f4", "name:la": "Potestampium", "name:lt": "Potsdamas", "name:lv": "Potsdama", "name:mk": "\u041f\u043e\u0442\u0441\u0434\u0430\u043c", "name:os": "\u041f\u043e\u0442\u0441\u0434\u0430\u043c", "name:pl": "Poczdam", "name:pnb": "\u067e\u0648\u0679\u0633\u0688\u06cc\u0645", "name:ru": "\u041f\u043e\u0442\u0441\u0434\u0430\u043c", "name:sq": "Pocdami", "name:sr": "\u041f\u043e\u0442\u0441\u0434\u0430\u043c", "name:th": "\u0e1e\u0e2d\u0e17\u0e2a\u0e14\u0e31\u0e21", "name:uk": "\u041f\u043e\u0442\u0441\u0434\u0430\u043c", "name:ur": "\u067e\u0627\u0679\u0633\u0688\u06cc\u0645", "name:zh": "\u6ce2\u8328\u5766\u5927\u5b66", "openGeoDB:community_identification_number": "12054000", "openGeoDB:license_plate_code": "P", "openGeoDB:loc_id": "22587", "openGeoDB:postal_codes": "14461,14467,14469,14471,14473,14478,14480,14482", "openGeoDB:telephone_area_code": "0331", "place": "city", "population": "178089", "ref:LOCODE": "DEPOT", "wikidata": "Q1711", "wikipedia": "de:Potsdam"}}, {"type": "node", "id": 1699831958, "lat": 48.3974003, "lon": 9.9934336, "tags": {"is_in": "T\u00fcbingen,Baden-W\u00fcrttemberg,Bundesrepublik Deutschland,Europe", "is_in:country_code": "DE", "is_in:iso_3166_2": "DE-BW", "name": "Ulm", "name:ar": "\u0623\u0648\u0644\u0645", "name:de": "Ulm", "name:dsb": "Ulm", "name:en": "Ulm", "name:fr": "Ulm", "name:hy": "\u0548\u0582\u056c\u0574", "name:it": "Ulmo", "name:ja": "\u30a6\u30eb\u30e0", "name:ka": "\u10e3\u10da\u10db\u10d8", "name:la": "Ulma", "name:ru": "\u0423\u043b\u044c\u043c", "name:sr": "\u0423\u043b\u043c", "name:uk": "\u0423\u043b\u044c\u043c", "name:zh": "\u4e4c\u5c14\u59c6", "openGeoDB:community_identification_number": "08421", "openGeoDB:license_plate_code": "UL", "openGeoDB:loc_id": "374", "openGeoDB:type": "Stadtkreis", "place": "city", "population": "121648", "ref:LOCODE": "DEULM", "website": "http://www.ulm.de/ulm/", "wikidata": "Q3012", "wikimedia_commons": "Category:Ulm", "wikipedia": "de:Ulm"}}, {"type": "node", "id": 1700534808, "lat": 48.1371079, "lon": 11.5753822, "tags": {"alt_name:la": "Monachium;Monachum", "capital": "4", "ele": "519", "int_name": "Munich", "is_in": "Oberbayern,Bayern,Bundesrepublik Deutschland,Europe", "is_in:country_code": "DE", "is_in:iso_3166_2": "DE-BY", "name": "M\u00fcnchen", "name:als": "M\u00fcnche", "name:ar": "\u0645\u064a\u0648\u0646\u062e", "name:az": "M\u00fcnhen", "name:bar": "Minga", "name:be": "\u041c\u044e\u043d\u0445\u0435\u043d", "name:be-tarask": "\u041c\u044e\u043d\u0445\u044d\u043d", "name:bg": "\u041c\u044e\u043d\u0445\u0435\u043d", "name:ca": "Munic", "name:cs": "Mnichov", "name:da": "M\u00fcnchen", "name:de": "M\u00fcnchen", "name:dsb": "M\u00fcnchen", "name:el": "\u039c\u03cc\u03bd\u03b1\u03c7\u03bf", "name:en": "Munich", "name:eo": "Munkeno", "name:es": "M\u00fanich", "name:eu": "Munich", "name:fa": "\u0645\u0648\u0646\u06cc\u062e", "name:fi": "M\u00fcnchen", "name:fr": "Munich", "name:gl": "M\u00fanic", "name:he": "\u05de\u05d9\u05e0\u05db\u05df", "name:hi": "\u092e\u094d\u092f\u0942\u0928\u093f\u0916", "name:hr": "M\u00fcnchen", "name:hsb": "Mnichow", "name:hy": "\u0544\u0575\u0578\u0582\u0576\u056d\u0565\u0576", "name:it": "Monaco di Baviera", "name:ja": "\u30df\u30e5\u30f3\u30d8\u30f3", "name:ka": "\u10db\u10d8\u10e3\u10dc\u10ee\u10d4\u10dc\u10d8", "name:kk": "\u041c\u044e\u043d\u0445\u0435\u043d", "name:kn": "\u0cae\u0cc1\u0ca8\u0cbf\u0c95\u0ccd", "name:la": "Monacum", "name:lt": "Miunchenas", "name:lv": "Minhene", "name:mk": "\u041c\u0438\u043d\u0445\u0435\u043d", "name:nl": "M\u00fcnchen", "name:oc": "Munic", "name:pl": "Monachium", "name:pt": "Munique", "name:ru": "\u041c\u044e\u043d\u0445\u0435\u043d", "name:sh": "M\u00fcnchen", "name:sk": "Mn\u00edchov", "name:sr": "\u041c\u0438\u043d\u0445\u0435\u043d", "name:tr": "M\u00fcnih", "name:uz": "Munhen", "name:vi": "M\u00fcnchen", "name:zh": "\u6155\u5c3c\u9ed1", "openGeoDB:community_identification_number": "09162", "openGeoDB:license_plate_code": "M", "openGeoDB:loc_id": "212", "openGeoDB:telephone_area_code": "089", "openGeoDB:type": "Landeshauptstadt", "place": "city", "population": "1484226", "ref:LOCODE": "DEMUC", "source:name:oc": "Lo Congr\u00e8s", "source:population": "https://www.statistik.bayern.de/mam/produkte/veroffentlichungen/statistische_berichte/a1200c_201944.xla", "website": "https://www.muenchen.de/", "wikidata": "Q1726", "wikipedia": "de:M\u00fcnchen"}}, {"type": "node", "id": 2069498986, "lat": 51.6804093, "lon": 7.815197, "tags": {"ele": "63", "is_in": "Nordrhein-Westfalen,Deutschland,Europe", "is_in:country_code": "DE", "is_in:iso_3166_2": "DE-NW", "name": "Hamm", "name:ar": "\u0647\u0627\u0645", "name:fa": "\u0647\u0627\u0645", "name:hu": "Hamm", "name:la": "Hammona", "name:ru": "\u0425\u0430\u043c\u043c", "name:ur": "\u06c1\u0645", "place": "city", "population": "176048", "ref:LOCODE": "DEHMM", "wikidata": "Q2880"}}, {"type": "node", "id": 2110382406, "lat": 48.7630165, "lon": 11.4250395, "tags": {"de:amtlicher_gemeindeschluessel": "09161000", "ele": "374", "is_in:iso_3166_2": "DE-BY", "name": "Ingolstadt", "name:ar": "\u0625\u0646\u063a\u0648\u0644\u0634\u062a\u0627\u062a", "name:bar": "Inglstood", "name:el": "\u038a\u03bd\u03b3\u03ba\u03bf\u03bb\u03c3\u03c4\u03b1\u03c4", "name:he": "\u05d0\u05d9\u05e0\u05d2\u05d5\u05dc\u05e9\u05d8\u05d0\u05d8", "name:hu": "Ingolstadt", "name:ja": "\u30a4\u30f3\u30b4\u30eb\u30b7\u30e5\u30bf\u30c3\u30c8", "name:la": "Ingolstadium", "name:ru": "\u0418\u043d\u0433\u043e\u043b\u044c\u0448\u0442\u0430\u0434\u0442", "name:sr": "\u0418\u043d\u0433\u043e\u043b\u0448\u0442\u0430\u0442", "place": "city", "population": "127886", "ref:LOCODE": "DEING", "website": "https://www.ingolstadt.de/", "wikidata": "Q3004", "wikipedia": "de:Ingolstadt"}}]}